uniqueID,title,Longitude,Latitude,clinicAddressLine1,clinicAddressLine2,suburb,state,postcode,driveThroughTesting,wheelchairAccessible,walkinAllowed,bookingRequired,bookingLink,bookingPhoneNumber,ageLimit,referralRequired,weekHours,mondayHours,mondayOpeningHours,mondayBreakStartTime,mondayBreakEndTime,mondayClosingHours,tuesdayHours,tuesdayOpeningHours,tuesdayBreakStartTime,tuesdayBreakEndTime,tuesdayClosingHours,wednesdayHours,wednesdayOpeningHours,wednesdayBreakStartTime,wednesdayBreakEndTime,wednesdayClosingHours,thursdayHours,thursdayOpeningHours,thursdayBreakStartTime,thursdayBreakEndTime,thursdayClosingHours,fridayHours,fridayOpeningHours,fridayBreakStartTime,fridayBreakEndTime,fridayClosingHours,saturdayHours,saturdayOpeningHours,saturdayBreakStartTime,saturdayBreakEndTime,saturdayClosingHours,sundayHours,sundayOpeningHours,sundayBreakStartTime,sundayBreakEndTime,sundayClosingHours,specialInstructions,resultsInstructions,closureInstructions,ageRestrictionInstructions,bookingInstructions,otherInstructions,providerWebsite,lastUpdated,lga_code19,LGAname,clinicmark,lgacount
CID00001,Albion Park Southern.IML Pathology Drive-through Clinic,150.77757,-34.57014083,,Croome Road,Albion Park,NSW,2527,2,2,1,1,,,1,1,49,7,8:00 AM,,,3:00 PM,7,8:00 AM,,,3:00 PM,7,8:00 AM,,,3:00 PM,7,8:00 AM,,,3:00 PM,7,8:00 AM,,,3:00 PM,7,8:00 AM,,,3:00 PM,7,8:00 AM,,,3:00 PM,,1300 652 200,,,,,https://www.southernpath.com.au/,19/04/2022 8:30,16900,Shellharbour (C),2,3
CID00002,Albury Dorevitch Pathology Walk-in Clinic,146.92729,-36.038827,Lavington Hall,488 Urana Road,Lavington,NSW,2641,1,2,2,1,,,1,1,25,5,7:30 AM,,,12:30 PM,5,7:30 AM,,,12:30 PM,5,7:30 AM,,,12:30 PM,5,7:30 AM,,,12:30 PM,5,7:30 AM,,,12:30 PM,0,,,,,0,,,,,,,,,,,https://www.dorevitch.com.au/,17/09/2022 12:45,10050,Albury (C),1,1
CID00010,Armidale Douglass Hanly Moir Pathology Walk-in Clinic,151.6584625,-30.5127852,,210 Rusden Street,Armidale,NSW,2350,1,1,2,1,,,1,1,32.5,6.5,8:30 AM,,,3:00 PM,6.5,8:30 AM,,,3:00 PM,6.5,8:30 AM,,,3:00 PM,6.5,8:30 AM,,,3:00 PM,6.5,8:30 AM,,,3:00 PM,0,,,,,0,,,,,,(02) 9855 6116,,,,,https://www.dhm.com.au/,28/09/2022 15:00,10130,Armidale Regional (A),2,3
CID00011,Armidale Hospital Drive-through Clinic,151.673146,-30.516733,,226 Rusden Street,Armidale,NSW,2350,2,2,1,2,,0427 923 080,1,1,2,0,,,,,0,,,,,1,10:30 AM,,,11:30 AM,0,,,,,1,10:30 AM,,,11:30 AM,0,,,,,0,,,,,,,,,Call between opening hours to make an appointment.,,,31/05/2022 9:30,10130,Armidale Regional (A),2,3
CID00012,Arncliffe Histopath Pathology Drive-through Clinic,151.15049,-33.94474,Riverine Park,Corner Spring Street and West Botany Street,Arncliffe,NSW,2205,2,2,1,1,,,1,1,40,8,8:00 AM,,,4:00 PM,8,8:00 AM,,,4:00 PM,8,8:00 AM,,,4:00 PM,8,8:00 AM,,,4:00 PM,8,8:00 AM,,,4:00 PM,0,,,,,0,,,,,,(02) 9878 8111,,,,,https://www.histopath.com.au/,29/09/2022 10:00,10500,Bayside (A),2,5
CID00013,Ashfield Clinical Labs Pathology Walk-in Clinic,151.1248876,-33.88897925,,236 Liverpool Road,Ashfield,NSW,2131,1,1,2,1,,,1,1,56,8,8:00 AM,,,4:00 PM,8,8:00 AM,,,4:00 PM,8,8:00 AM,,,4:00 PM,8,8:00 AM,,,4:00 PM,8,8:00 AM,,,4:00 PM,8,8:00 AM,,,4:00 PM,8,8:00 AM,,,4:00 PM,,1300 134 111,,,,,https://www.clinicallabs.com.au/about-us/doctor-media-releases/novel-coronavirus-nsw/,15/09/2022 12:00,14170,Inner West (A),2,4
CID00014,Auburn Central Clinical Labs Pathology Walk In Clinic,151.0317828,-33.85043343,Town Square,Queen Street,Auburn,NSW,2144,1,2,2,1,,,1,1,49,7,9:00 AM,,,4:00 PM,7,9:00 AM,,,4:00 PM,7,9:00 AM,,,4:00 PM,7,9:00 AM,,,4:00 PM,7,9:00 AM,,,4:00 PM,7,9:00 AM,,,4:00 PM,7,9:00 AM,,,4:00 PM,,(02) 8745 6500,,,,,https://www.clinicallabs.com.au/,17/09/2022 12:45,12380,Cumberland (A),2,5
CID00015,Auburn Clinical Labs Pathology Drive-through Clinic,151.040149,-33.852396,,48 Boorea Street,Auburn,NSW,2144,2,2,1,1,,,1,1,49,7,10:00 AM,,,5:00 PM,7,10:00 AM,,,5:00 PM,7,10:00 AM,,,5:00 PM,7,10:00 AM,,,5:00 PM,7,10:00 AM,,,5:00 PM,7,10:00 AM,,,5:00 PM,7,10:00 AM,,,5:00 PM,,,,,,,https://www.clinicallabs.com.au/,19/09/2022 0:00,12380,Cumberland (A),2,5
CID00018,Balgownie Laverty Pathology Walk-in Clinic,150.8770269,-34.38871992,Shop 5,145 Balgownie Road,Balgownie,NSW,2519,1,1,2,2,,(02) 4283 5427,1,1,12.5,2.5,12:30 PM,,,3:00 PM,2.5,12:30 PM,,,3:00 PM,2.5,12:30 PM,,,3:00 PM,2.5,12:30 PM,,,3:00 PM,2.5,12:30 PM,,,3:00 PM,0,,,,,0,,,,,,(02) 9005 7005,,,,,https://www.laverty.com.au/,21/09/2022 9:15,18450,Wollongong (C),2,9
CID00019,Ballina 4Cyte Pathology Drive-through Clinic,153.5511237,-28.86641507,,319 River Street,Ballina,NSW,2478,2,2,1,1,,,1,1,63,9,7:00 AM,,,4:00 PM,9,7:00 AM,,,4:00 PM,9,7:00 AM,,,4:00 PM,9,7:00 AM,,,4:00 PM,9,7:00 AM,,,4:00 PM,9,7:00 AM,,,4:00 PM,9,7:00 AM,,,4:00 PM,,13 42 98,,,,,https://www.4cyte.com.au/,22/06/2022 13:45,10250,Ballina (A),1,1
CID00023,Bankstown 4Cyte Pathology Walk-in Clinic,151.032748,-33.914917,,48 Kitchener Parade,Bankstown,NSW,2200,1,2,2,1,,,1,1,70,10,8:00 AM,,,6:00 PM,10,8:00 AM,,,6:00 PM,10,8:00 AM,,,6:00 PM,10,8:00 AM,,,6:00 PM,10,8:00 AM,,,6:00 PM,10,8:00 AM,,,6:00 PM,10,8:00 AM,,,6:00 PM,,13 42 98,,,,,https://www.4cyte.com.au/,29/09/2022 10:16,11570,Canterbury-Bankstown (A),2,9
CID00024,Bankstown Laverty Pathology Walk-in Clinic,151.032726,-33.914691,"Kitchener Building, Suite 3",52 Kitchener Parade,Bankstown,NSW,2200,1,1,2,1,,,1,1,15,3,1:00 PM,,,4:00 PM,3,1:00 PM,,,4:00 PM,3,1:00 PM,,,4:00 PM,3,1:00 PM,,,4:00 PM,3,1:00 PM,,,4:00 PM,0,,,,,0,,,,,,(02) 9005 7005,,,,,https://www.laverty.com.au/,21/09/2022 8:45,11570,Canterbury-Bankstown (A),2,9
CID00028,Barden Ridge Histopath Pathology Drive-through Clinic,150.994792,-34.03324,The Ridge Athletic Track,Recreation Drive,Barden Ridge,NSW,2234,2,2,1,1,,,1,1,70,10,8:00 AM,,,6:00 PM,10,8:00 AM,,,6:00 PM,10,8:00 AM,,,6:00 PM,10,8:00 AM,,,6:00 PM,10,8:00 AM,,,6:00 PM,10,8:00 AM,,,6:00 PM,10,8:00 AM,,,6:00 PM,,(02) 9878 8111,,,,,https://www.histopath.com.au/,11/10/2022 12:30,17150,Sutherland Shire (A),2,7
CID00038,Bathurst Drive-through Clinic,149.5794731,-33.41523545,Old Clancy's Car Yard,250-252 Howick Street,Bathurst,NSW,2795,2,2,2,1,,,1,1,45,7,8:00 AM,,,3:00 PM,7,8:00 AM,,,3:00 PM,7,8:00 AM,,,3:00 PM,7,8:00 AM,,,3:00 PM,7,8:00 AM,,,3:00 PM,5,10:00 AM,,,3:00 PM,5,10:00 AM,,,3:00 PM,,,,,,,,29/09/2022 10:16,10470,Bathurst Regional (A),1,1
CID00040,Batemans Bay Southern.IML Pathology Drive through Clinic,150.192618,-35.722913,Hanging Rock Oval carpark,Beach Road,Batemans Bay,NSW,2536,2,2,1,1,,,1,1,30,6,9:00 AM,,,3:00 PM,6,9:00 AM,,,3:00 PM,6,9:00 AM,,,3:00 PM,6,9:00 AM,,,3:00 PM,6,9:00 AM,,,3:00 PM,0,,,,,0,,,,,,,,,,,,3/08/2022 16:56,12750,Eurobodalla (A),1,1
CID00042,Wallagoot Capital Pathology Drive-through Clinic,149.9206986,-36.76011497,Capital Pathology Collection,87 Carp St,Bega,NSW,2550,2,2,1,1,,,1,1,4,0,,,,,0,,,,,4,8:00 AM,,,12:00 PM,0,,,,,0,,,,,0,,,,,0,,,,,,02 6499 0610,,,,,https://www.capitalpath.com.au/,31/10/2022 0:00,10550,Bega Valley (A),1,1
CID00043,Bella Vista Clinical Labs Pathology Walk-In Clinic,150.9473992,-33.73650896,Unit 112,14 Lexington Drive,Bella Vista,NSW,2153,1,2,2,2,https://clinicallabs.simplybook.me/v2/,,1,1,54,8,9:00 AM,,,5:00 PM,8,9:00 AM,,,5:00 PM,8,9:00 AM,,,5:00 PM,8,9:00 AM,,,5:00 PM,8,9:00 AM,,,5:00 PM,7,9:00 AM,,,4:00 PM,7,9:00 AM,,,4:00 PM,,1300 134 111,,,,,https://www.clinicallabs.com.au/about-us/doctor-media-releases/novel-coronavirus-nsw/,14/09/2022 16:00,17420,The Hills Shire (A),2,4
CID00044,Bellambi Histopath Drive-through Clinic,150.9243381,-34.36934657,Soccer Field Carpark,Armour Street,Bellambi,NSW,2518,2,2,1,1,,,1,1,56,8,8:00 AM,,,4:00 PM,8,8:00 AM,,,4:00 PM,8,8:00 AM,,,4:00 PM,8,8:00 AM,,,4:00 PM,8,8:00 AM,,,4:00 PM,8,8:00 AM,,,4:00 PM,8,8:00 AM,,,4:00 PM,,(02) 9878 8111,,,,,https://www.histopath.com.au/,29/09/2022 10:16,18450,Wollongong (C),2,9
CID00047,Belmore Respiratory Clinic,151.0901489,-33.9205457,,479 Burwood Road,Belmore,NSW,2192,2,1,1,2,https://www.hotdoc.com.au/medical-centres/book/appointment/patient?clinic=4344,,1,1,47,7,9:00 AM,,,4:00 PM,7,9:00 AM,,,4:00 PM,7,9:00 AM,,,4:00 PM,7,9:00 AM,,,4:00 PM,7,9:00 AM,,,4:00 PM,7,9:00 AM,,,4:00 PM,5,9:00 AM,,,2:00 PM,,,,,,,,26/08/2022 12:15,11570,Canterbury-Bankstown (A),2,9
CID00049,Berkeley Southern.IML Pathology Drive-through Clinic,150.834846,-34.47872925,Illawarra Sports Stadium Car Park,"Fred Finch Park, Hooka Creek Road",Berkeley,NSW,2506,2,2,1,1,,,1,1,54,9,8:00 AM,,,5:00 PM,9,8:00 AM,,,5:00 PM,9,8:00 AM,,,5:00 PM,9,8:00 AM,,,5:00 PM,9,8:00 AM,,,5:00 PM,0,,,,,9,8:00 AM,,,5:00 PM,,1300 652 200,,,,,https://www.southernpath.com.au/,23/05/2022 16:15,18450,Wollongong (C),2,9
CID00051,Blacktown 4Cyte Pathology Drive-through and Walk-in Clinic,150.9105936,-33.76560597,,20 Third Avenue,Blacktown,NSW,2148,2,2,2,1,,,1,1,91,13,7:00 AM,,,8:00 PM,13,7:00 AM,,,8:00 PM,13,7:00 AM,,,8:00 PM,13,7:00 AM,,,8:00 PM,13,7:00 AM,,,8:00 PM,13,7:00 AM,,,8:00 PM,13,7:00 AM,,,8:00 PM,,13 42 98,,,,,https://www.4cyte.com.au/,29/09/2022 10:01,10750,Blacktown (C),2,9
CID00052,Blacktown Grafton St 4Cyte Pathology Drive-through and Walk-in Clinic,150.914186,-33.773638,,4 Grafton Street,Blacktown,NSW,2148,2,2,2,1,,,1,1,60,10,8:00 AM,,,6:00 PM,10,8:00 AM,,,6:00 PM,10,8:00 AM,,,6:00 PM,10,8:00 AM,,,6:00 PM,10,8:00 AM,,,6:00 PM,10,8:00 AM,,,6:00 PM,0,,,,,,13 42 98,,,,,https://www.4cyte.com.au/,29/09/2022 10:17,10750,Blacktown (C),2,9
CID00056,Blacktown Showground Douglass Hanly Moir Pathology Drive-through Clinic,150.901518,-33.763759,Blacktown Showground Car Park (opposite Supercheap Auto Blacktown),Richmond Road,Blacktown,NSW,2148,2,2,1,1,,,1,1,35,5,8:00 AM,,,1:00 PM,5,8:00 AM,,,1:00 PM,5,8:00 AM,,,1:00 PM,5,8:00 AM,,,1:00 PM,5,8:00 AM,,,1:00 PM,5,8:00 AM,,,1:00 PM,5,8:00 AM,,,1:00 PM,,(02) 9855 6116,,,,,https://www.dhm.com.au/,28/09/2022 9:00,10750,Blacktown (C),2,9
CID00059,Blue Mountains Hospital Drive-through Clinic,150.320932,-33.704937,,Woodlands Road,Katoomba,NSW,2780,2,2,1,1,,,1,1,18,6,9:00 AM,12:00 PM,1:00 PM,4:00 PM,0,,,,,6,9:00 AM,12:00 PM,1:00 PM,4:00 PM,0,,,,,6,9:00 AM,12:00 PM,1:00 PM,4:00 PM,0,,,,,0,,,,,,,,,,,,26/10/2022 11:00,10900,Blue Mountains (C),2,3
CID00061,Bomaderry Histopath Pathology Drive-through Clinic,150.6010711,-34.84630777,Shoalhaven Indoor Sports Centre Car Park,90 Cambewarra Road,Bomaderry,NSW,2541,2,2,1,1,,,1,1,56,8,8:00 AM,,,4:00 PM,8,8:00 AM,,,4:00 PM,8,8:00 AM,,,4:00 PM,8,8:00 AM,,,4:00 PM,8,8:00 AM,,,4:00 PM,8,8:00 AM,,,4:00 PM,8,8:00 AM,,,4:00 PM,,(02) 9878 8111,,,,,https://www.histopath.com.au/,29/09/2022 10:17,16950,Shoalhaven (C),2,7
CID00064,Bondi Junction 4Cyte Pathology Walk-in Clinic,151.2477432,-33.8939983,,50 Bronte Road,Bondi Junction,NSW,2022,1,2,2,1,,,1,1,70,10,8:00 AM,,,6:00 PM,10,8:00 AM,,,6:00 PM,10,8:00 AM,,,6:00 PM,10,8:00 AM,,,6:00 PM,10,8:00 AM,,,6:00 PM,10,8:00 AM,,,6:00 PM,10,8:00 AM,,,6:00 PM,,13 42 98,,,,,https://www.4cyte.com.au/,29/09/2022 10:15,18050,Waverley (A),2,2
CID00066,Bondi Junction GP Respiratory Clinic,151.2466185,-33.8925119,,47 Spring Street,Bondi Junction,NSW,2022,1,1,2,2,https://www.hotdoc.com.au/medical-centres/bondi-junction-NSW-2022/bondi-junction-respiratory-clinic/doctors?purpose=respiratory,,1,1,43,8,9:00 AM,,,5:00 PM,8,9:00 AM,,,5:00 PM,7.5,9:00 AM,,,4:30 PM,8,9:00 AM,,,5:00 PM,8,9:00 AM,,,5:00 PM,3.5,9:00 AM,,,12:30 PM,0,,,,,,,,,,,,12/09/2022 14:30,18050,Waverley (A),2,2
CID00068,Hunters Hill Clinical Labs Pathology Drive-through Clinic,151.139395,-33.82411338,,Corner Princes Street and Park Road,Hunters Hill,NSW,2110,2,2,1,1,,,1,1,35,5,9:00 AM,,,2:00 PM,5,9:00 AM,,,2:00 PM,5,9:00 AM,,,2:00 PM,5,9:00 AM,,,2:00 PM,5,9:00 AM,,,2:00 PM,5,9:00 AM,,,2:00 PM,5,9:00 AM,,,2:00 PM,,1300 134 111,,,,,https://www.clinicallabs.com.au/about-us/doctor-media-releases/novel-coronavirus-nsw/,12/10/2022 15:15,14100,Hunters Hill (A),1,1
CID00074,Broken Hill (Maari Ma Health Service) Respiratory Clinic,141.46906,-31.9563697,,439 Argent Street,Broken Hill,NSW,2880,1,2,1,2,,08 8082 9777,1,1,30,6,9:00 AM,1:00 PM,2:00 PM,4:00 PM,6,9:00 AM,1:00 PM,2:00 PM,4:00 PM,6,9:00 AM,1:00 PM,2:00 PM,4:00 PM,6,9:00 AM,1:00 PM,2:00 PM,4:00 PM,6,9:00 AM,1:00 PM,2:00 PM,4:00 PM,0,,,,,0,,,,,,,,,This service is for Aboriginal and Torres Strait Islander people,,,19/04/2022 9:31,11250,Broken Hill (C),2,3
CID00079,Burwood 4Cyte Pathology Walk-in Clinic,151.1039535,-33.87820347,,188-190 Burwood Road,Burwood,NSW,2134,1,2,2,1,,,1,1,70,10,8:00 AM,,,6:00 PM,10,8:00 AM,,,6:00 PM,10,8:00 AM,,,6:00 PM,10,8:00 AM,,,6:00 PM,10,8:00 AM,,,6:00 PM,10,8:00 AM,,,6:00 PM,10,8:00 AM,,,6:00 PM,,13 42 98,,,,,https://www.4cyte.com.au/,29/09/2022 10:15,11300,Burwood (A),2,2
CID00082,Byron Central Hospital Clinic,153.5558978,-28.6373653,,54 Ewingsdale Road,Ewingsdale,NSW,2481,1,2,2,1,,,1,1,20,4,9:00 AM,,,1:00 PM,0,,,,,4,9:00 AM,,,1:00 PM,0,,,,,4,9:00 AM,,,1:00 PM,4,10:00 AM,,,2:00 PM,4,10:00 AM,,,2:00 PM,,,,,,,,2/10/2022 10:30,11350,Byron (A),1,1
CID00087,Campbelltown Histopath Pathology Drive-through Clinic,150.787544,-34.068295,"Western Sydney University, Car Park 8",Brian Smith Drive,Campbelltown,NSW,2560,2,2,1,1,,,1,1,56,8,8:00 AM,,,4:00 PM,8,8:00 AM,,,4:00 PM,8,8:00 AM,,,4:00 PM,8,8:00 AM,,,4:00 PM,8,8:00 AM,,,4:00 PM,8,8:00 AM,,,4:00 PM,8,8:00 AM,,,4:00 PM,,(02) 9878 8111,,,,,https://www.histopath.com.au/,29/09/2022 10:00,11500,Campbelltown (C) (NSW),2,4
CID00089,Campbelltown Respiratory Clinic,150.8124686,-34.0682525,Shop 1,251 Queen Street,Campbelltown,NSW,2560,1,1,2,2,https://www.hotdoc.com.au/medical-centres/campbelltown-NSW-2560/campbelltown-respiratory-clinic/doctors?purpose=respiratory,02 4608 9772,1,1,44,8,9:00 AM,,,5:00 PM,8,9:00 AM,,,5:00 PM,8,9:00 AM,,,5:00 PM,8,9:00 AM,,,5:00 PM,8,9:00 AM,,,5:00 PM,4,9:00 AM,,,1:00 PM,0,,,,,,02 9005 7005,,,,,,8/06/2022 14:15,11500,Campbelltown (C) (NSW),2,4
CID00090,Campbelltown/Leumeah Histopath Pathology Drive-through Clinic,150.831223,-34.049327,Commuter Car Park,Plough Inn Road,Leumeah,NSW,2560,2,2,1,1,,,1,1,70,10,8:00 AM,,,6:00 PM,10,8:00 AM,,,6:00 PM,10,8:00 AM,,,6:00 PM,10,8:00 AM,,,6:00 PM,10,8:00 AM,,,6:00 PM,10,8:00 AM,,,6:00 PM,10,8:00 AM,,,6:00 PM,,(02) 9878 8111,,,,,https://www.histopath.com.au/,11/10/2022 12:30,11500,Campbelltown (C) (NSW),2,4
CID00091,Campsie 4Cyte Pathology Walk-in Clinic,151.1023779,-33.91400107,,76 Evaline Street,Campsie,NSW,2194,1,1,2,1,,,1,1,70,10,8:00 AM,,,6:00 PM,10,8:00 AM,,,6:00 PM,10,8:00 AM,,,6:00 PM,10,8:00 AM,,,6:00 PM,10,8:00 AM,,,6:00 PM,10,8:00 AM,,,6:00 PM,10,8:00 AM,,,6:00 PM,,13 42 98,,,,,https://www.4cyte.com.au/,29/09/2022 10:15,11570,Canterbury-Bankstown (A),2,9
CID00097,Caringbah Histopath Pathology Walk-in Clinic,151.121074,-34.04158,,348R Kingsway,Caringbah,NSW,2229,1,2,2,1,,,1,1,56,8,8:00 AM,,,4:00 PM,8,8:00 AM,,,4:00 PM,8,8:00 AM,,,4:00 PM,8,8:00 AM,,,4:00 PM,8,8:00 AM,,,4:00 PM,8,8:00 AM,,,4:00 PM,8,8:00 AM,,,4:00 PM,,(02) 9878 8111,,,,,https://www.histopath.com.au/,29/09/2022 10:17,17150,Sutherland Shire (A),2,7
CID00099,Carlton 4Cyte Pathology Drive-through Clinic,151.1281963,-33.97414087,,261 Princes Highway,Carlton,NSW,2218,2,2,2,1,,,1,1,91,13,7:00 AM,,,8:00 PM,13,7:00 AM,,,8:00 PM,13,7:00 AM,,,8:00 PM,13,7:00 AM,,,8:00 PM,13,7:00 AM,,,8:00 PM,13,7:00 AM,,,8:00 PM,13,7:00 AM,,,8:00 PM,,13 42 98,,,,,https://www.4cyte.com.au/,29/09/2022 10:15,12930,Georges River (A),2,5
CID00100,Casino 4Cyte Pathology Drive-through Clinic,153.0447084,-28.85335196,,1 Cemetery Lane,Casino,NSW,2470,2,2,1,1,,,1,1,40,8,7:00 AM,,,3:00 PM,8,7:00 AM,,,3:00 PM,8,7:00 AM,,,3:00 PM,8,7:00 AM,,,3:00 PM,8,7:00 AM,,,3:00 PM,0,,,,,0,,,,,,13 42 98,,,,,https://www.4cyte.com.au/,22/06/2022 14:01,16610,Richmond Valley (A),2,2
CID00101,Casino Respiratory Clinic,153.0470217,-28.86301724,,153 Canterbury Street,Casino,NSW,2470,1,2,1,2,https://www.hotdoc.com.au/medical-centres/casino-NSW-2470/casino-respiratory-clinic/doctors?purpose=respiratory,,1,1,21.25,7,9:00 AM,,,4:00 PM,0,,,,,7,9:00 AM,,,4:00 PM,0,,,,,7.25,8:30 AM,,,3:45 PM,0,,,,,0,,,,,,,,,,,,19/04/2022 12:45,16610,Richmond Valley (A),2,2
CID00103,Castle Hill Clinical Labs Pathology Drive-through Clinic,150.98582,-33.724302,Castle Hill Showground,Showground Road,Castle Hill,NSW,2154,2,2,1,1,,,1,1,56,8,9:00 AM,,,5:00 PM,8,9:00 AM,,,5:00 PM,8,9:00 AM,,,5:00 PM,8,9:00 AM,,,5:00 PM,8,9:00 AM,,,5:00 PM,8,9:00 AM,,,5:00 PM,8,9:00 AM,,,5:00 PM,,1300 134 111,,,,,https://www.clinicallabs.com.au/about-us/doctor-media-releases/novel-coronavirus-nsw/,18/09/2022 0:00,17420,The Hills Shire (A),2,4
CID00105,Castle Hill Respiratory Clinic,151.0045571,-33.73293266,,2/268 Old Northern Road,Castle Hill,NSW,2154,1,1,1,2,https://www.hotdoc.com.au/medical-centres/castle-hill-NSW-2154/castle-hill-respiratory-clinic/doctors,,1,1,20,4,9:00 AM,,,1:00 PM,4,9:00 AM,,,1:00 PM,4,9:00 AM,,,1:00 PM,4,9:00 AM,,,1:00 PM,4,9:00 AM,,,1:00 PM,0,,,,,0,,,,,,,,,,,,30/06/2022 15:55,17420,The Hills Shire (A),2,4
CID00106,Central Railway Station Laverty Pathology Walk-in Clinic,151.2053369,-33.88215129,Central Railway Station,482 Pitt Street,Haymarket,NSW,2000,1,2,2,1,,,1,1,22.5,4.5,8:30 AM,,,1:00 PM,4.5,8:30 AM,,,1:00 PM,4.5,8:30 AM,,,1:00 PM,4.5,8:30 AM,,,1:00 PM,4.5,8:30 AM,,,1:00 PM,0,,,,,0,,,,,,(02) 9005 7005,,,,,https://www.laverty.com.au/,21/09/2022 8:45,17200,Sydney (C),2,7
CID00112,Chester Hill Laverty Pathology Walk-in Clinic,151.002594,-33.882177,,"Shop 1, 159 Priam Street",Chester Hill,NSW,2162,1,2,2,1,,,1,1,21.5,3.5,1:00 PM,,,4:30 PM,3.5,1:00 PM,,,4:30 PM,3.5,1:00 PM,,,4:30 PM,3.5,1:00 PM,,,4:30 PM,3.5,1:00 PM,,,4:30 PM,4,8:00 AM,,,12:00 PM,0,,,,,,(02) 9005 7005,,,,,https://www.laverty.com.au/,21/09/2022 8:45,11570,Canterbury-Bankstown (A),2,9
CID00114,Chifley Histopath Pathology Drive-through Clinic,151.2380973,-33.97435,Chifley Sports Reserve,800-899R Bunnerong Road,Chifley,NSW,2036,2,2,2,1,,,1,1,40,8,8:00 AM,,,4:00 PM,8,8:00 AM,,,4:00 PM,8,8:00 AM,,,4:00 PM,8,8:00 AM,,,4:00 PM,8,8:00 AM,,,4:00 PM,0,,,,,0,,,,,,(02) 9878 8111,,,,,https://www.histopath.com.au/,29/09/2022 10:17,16550,Randwick (C),2,5
CID00120,Coffs Harbour Walk-in Clinic,153.0946608,-30.32319461,The old Red and White Medical Centre,220 Pacific Highway,Coffs Harbour,NSW,2450,1,2,2,1,,,1,1,25,5,10:00 AM,,,3:00 PM,5,10:00 AM,,,3:00 PM,5,10:00 AM,,,3:00 PM,5,10:00 AM,,,3:00 PM,5,10:00 AM,,,3:00 PM,0,,,,,0,,,,,,,,,,,,16/09/2022 8:45,11800,Coffs Harbour (C),2,2
CID00121,Coffs Harbour Sullivan Nicolaides Pathology Walk-in Clinic,153.115945,-30.301097,,80 Albany Street,Coffs Harbour,NSW,2450,1,1,2,1,,,1,1,53,10,7:00 AM,,,5:00 PM,10,7:00 AM,,,5:00 PM,10,7:00 AM,,,5:00 PM,10,7:00 AM,,,5:00 PM,10,7:00 AM,,,5:00 PM,3,7:30 AM,,,10:30 AM,0,,,,,,(07) 3377 8756,,,,,https://www.snp.com.au/coronavirus-covid-19,10/06/2022 16:00,11800,Coffs Harbour (C),2,2
CID00123,Concord Histopath Pathology Walk in and Drive-through Clinic,151.097721,-33.84583821,,1 Nullawarra Avenue,Concord,NSW,2137,2,2,2,1,,,1,1,70,10,8:00 AM,,,6:00 PM,10,8:00 AM,,,6:00 PM,10,8:00 AM,,,6:00 PM,10,8:00 AM,,,6:00 PM,10,8:00 AM,,,6:00 PM,10,8:00 AM,,,6:00 PM,10,8:00 AM,,,6:00 PM,,(02) 9878 8111,,,,,https://www.histopath.com.au/,29/09/2022 10:17,11520,Canada Bay (A),2,2
CID00124,Concord Hospital Clinic,151.091991,-33.836616,NSW Institute of Sports Medicine,Hospital Road,Concord West,NSW,2138,1,2,2,1,,,1,1,56,8,8:00 AM,,,4:00 PM,8,8:00 AM,,,4:00 PM,8,8:00 AM,,,4:00 PM,8,8:00 AM,,,4:00 PM,8,8:00 AM,,,4:00 PM,8,8:00 AM,,,4:00 PM,8,8:00 AM,,,4:00 PM,,,,,,,,19/04/2022 9:33,11520,Canada Bay (A),2,2
CID00127,Coolah Multi-Purpose Service Drive-through Clinic,149.7154627,-31.82297615,,Martin Street,Coolah,NSW,2843,1,2,2,2,,(02) 6377 9100,1,1,30,6,11:00 AM,,,5:00 PM,6,11:00 AM,,,5:00 PM,6,11:00 AM,,,5:00 PM,6,11:00 AM,,,5:00 PM,6,11:00 AM,,,5:00 PM,0,,,,,0,,,,,,,,,,,,25/05/2022 12:01,18020,Warrumbungle Shire (A),2,2
CID00129,Cooma Capital Pathology Walk-in Clinic,149.12269,-36.236483,,190 Sharp Street,Cooma,NSW,2630,1,1,2,2,,(02) 6452 3150,1,2,45,9,8:00 AM,,,5:00 PM,9,8:00 AM,,,5:00 PM,9,8:00 AM,,,5:00 PM,9,8:00 AM,,,5:00 PM,9,8:00 AM,,,5:00 PM,0,,,,,0,,,,,,(02) 6285 9803,,,,,https://www.capitalpath.com.au/,19/04/2022 9:45,17040,Snowy Monaro Regional (A),2,3
CID00132,Coonabarabran Health Service Drive-through and Walk-in Clinic,149.284375,-31.27461172,Coonabarabran Primary & Community Health,Cassilis Street,Coonabarabran,NSW,2357,2,2,2,2,,02 6849 1651,1,1,2,1,8:15 AM,,,9:15 AM,0,,,,,0,,,,,1,8:15 AM,,,9:15 AM,0,,,,,0,,,,,0,,,,,,,,,"Call 6849 1651, 9am to 1pm Monday to Friday to make an appointment",,,31/05/2022 15:00,18020,Warrumbungle Shire (A),2,2
CID00133,Coonamble Multi-Purpose Service Drive-through Clinic,149.2849636,-31.27443599,,150 Castlereagh Street,Coonamble,NSW,2829,2,2,1,2,,(02) 6822 9300,1,1,5,1,10:00 AM,,,11:00 AM,1,10:00 AM,,,11:00 AM,1,10:00 AM,,,11:00 AM,1,10:00 AM,,,11:00 AM,1,10:00 AM,,,11:00 AM,0,,,,,0,,,,,,,,,Testing available by appointment on public holidays.,,,25/05/2022 12:00,12150,Coonamble (A),1,1
CID00134,Cootamundra Hospital Clinic,148.013014,-34.634499,,148 MacKay Street,Cootamundra,NSW,2590,1,2,2,1,,,1,1,1,0.5,11:00 AM,,,11:30 AM,0,,,,,0,,,,,0.5,11:00 AM,,,11:30 AM,0,,,,,0,,,,,0,,,,,,,,,,,,26/09/2022 10:01,12160,Cootamundra-Gundagai Regional (A),2,3
CID00135,Burwood (Railway Parade) Histopath Drive-through Clinic,151.1010854,-33.87750842,,60 Railway Parade,Burwood,NSW,2134,2,1,1,1,,,1,1,56,8,8:00 AM,,,4:00 PM,8,8:00 AM,,,4:00 PM,8,8:00 AM,,,4:00 PM,8,8:00 AM,,,4:00 PM,8,8:00 AM,,,4:00 PM,8,8:00 AM,,,4:00 PM,8,8:00 AM,,,4:00 PM,,(02) 9878 8111,,,,,https://www.histopath.com.au/,29/09/2022 10:17,11300,Burwood (A),2,2
CID00138,Cromer Park Histopath Pathology Drive-through Clinic,151.2838948,-33.7389474,,120 South Creek Road,Cromer,NSW,2099,2,2,1,1,,,1,1,70,10,8:00 AM,,,6:00 PM,10,8:00 AM,,,6:00 PM,10,8:00 AM,,,6:00 PM,10,8:00 AM,,,6:00 PM,10,8:00 AM,,,6:00 PM,10,8:00 AM,,,6:00 PM,10,8:00 AM,,,6:00 PM,,(02) 9878 8111,,,,,https://www.histopath.com.au/,29/09/2022 10:45,15990,Northern Beaches (A),2,7
CID00139,Crookwell Hospital Clinic,149.467909,-34.465537,,15 Kialla Road,Crookwell,NSW,2583,1,2,2,2,,(02) 4837 5000,1,1,0,0,,,,,0,,,,,0,,,,,0,,,,,0,,,,,0,,,,,0,,,,,,1800 318 248,,,Testing available by appointment only.,,,6/07/2022 15:00,17640,Upper Lachlan Shire (A),1,1
CID00142,Daceyville Clinical Labs Pathology Drive-through Clinic,151.2288911,-33.93217379,Rowland Park,10-14 Prince Edward Circle,Daceyville,NSW,2032,2,2,1,1,,,1,1,56,8,8:00 AM,,,4:00 PM,8,8:00 AM,,,4:00 PM,8,8:00 AM,,,4:00 PM,8,8:00 AM,,,4:00 PM,8,8:00 AM,,,4:00 PM,8,8:00 AM,,,4:00 PM,8,8:00 AM,,,4:00 PM,,(02) 8745 6500,,,,,https://www.clinicallabs.com.au/,15/09/2022 12:00,16550,Randwick (C),2,5
CID00143,Dapto Histopath Pathology Drive-through and Walk-In Clinic,150.79448,-34.50297627,Lakelands Oval Carpark,Lakelands Drive,Dapto,NSW,2530,2,2,2,1,,,1,1,40,8,8:00 AM,,,4:00 PM,8,8:00 AM,,,4:00 PM,8,8:00 AM,,,4:00 PM,8,8:00 AM,,,4:00 PM,8,8:00 AM,,,4:00 PM,0,,,,,0,,,,,,(02) 9878 8111,,,,,https://www.histopath.com.au/,29/09/2022 10:45,18450,Wollongong (C),2,9
CID00144,Dee Why Respiratory Clinic,151.2828551,-33.7556633,,G/5 Mooramba Road,Dee Why,NSW,2099,1,1,2,2,https://www.hotdoc.com.au/medical-centres/dee-why-NSW-2099/dee-why-respiratory-clinic/doctors?purpose=respiratory,(02) 8416 5005,1,1,23.5,4,8:00 AM,,,12:00 PM,5,8:00 AM,,,1:00 PM,5,8:00 AM,,,1:00 PM,4.5,8:30 AM,,,1:00 PM,5,8:00 AM,,,1:00 PM,0,,,,,0,,,,,,,,,,,,19/04/2022 14:01,15990,Northern Beaches (A),2,7
CID00147,Doyalson Wyee RSL Douglas Hanly Moir Pathology Drive-through Clinic,151.5263217,-33.19726443,,49-65 Wentworth Avenue,Doyalson,NSW,2262,2,2,1,1,,,1,1,35,5,7:30 AM,,,12:30 PM,5,7:30 AM,,,12:30 PM,5,7:30 AM,,,12:30 PM,5,7:30 AM,,,12:30 PM,5,7:30 AM,,,12:30 PM,5,7:30 AM,,,12:30 PM,5,7:30 AM,,,12:30 PM,,(02) 9855 6116,,,,,https://www.dhm.com.au/,26/10/2022 11:00,11650,Central Coast (C) (NSW),2,8
CID00148,Dubbo Histopath Pathology Drive-through Clinic,148.6194473,-32.25919642,Dubbo Royal Australian Airforce depot,Spitfire Drive,Dubbo,NSW,2830,2,2,1,1,,,1,1,63,9,7:00 AM,,,4:00 PM,9,7:00 AM,,,4:00 PM,9,7:00 AM,,,4:00 PM,9,7:00 AM,,,4:00 PM,9,7:00 AM,,,4:00 PM,9,7:00 AM,,,4:00 PM,9,7:00 AM,,,4:00 PM,,(02) 9878 8111,,,,,https://www.histopath.com.au/,29/09/2022 10:45,12390,Dubbo Regional (A),2,3
CID00150,Dubbo Respiratory Clinic,148.6028915,-32.2504375,Dubbo Medical and Allied Health Group,183 Brisbane Street,Dubbo,NSW,2830,1,2,2,2,https://www.hotdoc.com.au/medical-centres/book/appointment/patient?clinic=4457,02 6815 9900,1,1,20,4,1:30 PM,,,5:30 PM,4,1:30 PM,,,5:30 PM,4,1:30 PM,,,5:30 PM,4,1:30 PM,,,5:30 PM,4,1:30 PM,,,5:30 PM,0,,,,,0,,,,,,,,,,,,22/12/2021 12:15,12390,Dubbo Regional (A),2,3
CID00155,Earlwood 4Cyte Pathology Drive-through and Walk-in Clinic,151.1187363,-33.92483007,Earlwood Bowling Club Carpark,134 Woolcott Street,Earlwood,NSW,2206,2,2,2,1,,,1,1,56,8,8:00 AM,,,4:00 PM,8,8:00 AM,,,4:00 PM,8,8:00 AM,,,4:00 PM,8,8:00 AM,,,4:00 PM,8,8:00 AM,,,4:00 PM,8,8:00 AM,,,4:00 PM,8,8:00 AM,,,4:00 PM,,13 42 98,,,,,https://www.4cyte.com.au/,3/08/2022 16:58,11570,Canterbury-Bankstown (A),2,9
CID00157,East Maitland 4Cyte Pathology Drive-through Clinic,151.580887,-32.751562,Stockade Hill Car Park,Brisbane Street,East Maitland,NSW,2323,2,2,1,1,,,1,1,51.5,8,7:30 AM,,,3:30 PM,8,7:30 AM,,,3:30 PM,8,7:30 AM,,,3:30 PM,8,7:30 AM,,,3:30 PM,8,7:30 AM,,,3:30 PM,7.5,7:30 AM,,,3:00 PM,4,8:00 AM,,,12:00 PM,,13 42 98,,,,,https://www.4cyte.com.au/,17/09/2022 12:45,15050,Maitland (C),2,4
CID00158,Eastwood Laverty Pathology Walk-in Clinic,151.0813813,-33.79219861,Shop 1,160 Rowe Street,Eastwood,NSW,2122,1,2,2,1,,,1,1,31.5,4.5,7:30 AM,,,12:00 PM,4.5,7:30 AM,,,12:00 PM,4.5,7:30 AM,,,12:00 PM,4.5,7:30 AM,,,12:00 PM,4.5,7:30 AM,,,12:00 PM,4.5,7:30 AM,,,12:00 PM,4.5,7:30 AM,,,12:00 PM,,(02) 9005 7005,,,,,https://www.laverty.com.au/,31/10/2022 11:00,16700,Ryde (C),2,6
CID00161,Emerald Hills Clinical Labs Pathology Drive-through Clinic,150.792234,-33.996384,Emerald Hills Shopping Village,Emerald Hills Boulevard,Leppington,NSW,2179,2,2,1,1,,,1,1,56,8,8:00 AM,,,4:00 PM,8,8:00 AM,,,4:00 PM,8,8:00 AM,,,4:00 PM,8,8:00 AM,,,4:00 PM,8,8:00 AM,,,4:00 PM,8,8:00 AM,,,4:00 PM,8,8:00 AM,,,4:00 PM,,1300 134 111,,,,,https://www.clinicallabs.com.au/about-us/doctor-media-releases/novel-coronavirus-nsw/,15/09/2022 12:00,14900,Liverpool (C),2,7
CID00164,Erina Coast and Country Respiratory Clinic,151.401807,-33.434659,,331 Terrigal Drive,Erina,NSW,2250,1,1,2,2,https://www.hotdoc.com.au/medical-centres/erina-NSW-2250/erina-respiratory-clinic/doctors?purpose=respiratory,,1,1,46.5,8,9:00 AM,,,5:00 PM,8,9:00 AM,,,5:00 PM,8,9:00 AM,,,5:00 PM,8,9:00 AM,,,5:00 PM,6.5,9:00 AM,,,3:30 PM,8,9:00 AM,,,5:00 PM,0,,,,,,,,,,,,19/04/2022 14:15,11650,Central Coast (C) (NSW),2,8
CID00167,Fairfield Histopath Pathology Drive-through Clinic,150.957025,-33.87705513,Fairfield Baseball Club,21 Ulverstone Street,Fairfield,NSW,2165,2,2,1,1,,,1,1,56,8,8:00 AM,,,4:00 PM,8,8:00 AM,,,4:00 PM,8,8:00 AM,,,4:00 PM,8,8:00 AM,,,4:00 PM,8,8:00 AM,,,4:00 PM,8,8:00 AM,,,4:00 PM,8,8:00 AM,,,4:00 PM,,(02) 9878 8111,,,,,https://www.histopath.com.au/,29/09/2022 10:00,12850,Fairfield (C),2,7
CID00171,Fairy Meadow Southern.IML Pathology Drive-through Clinic,150.9040006,-34.39105519,North Dalton Park,Pioneer Road,Fairy Meadow,NSW,2500,2,2,1,1,,,1,1,37.5,7.5,8:00 AM,,,3:30 PM,7.5,8:00 AM,,,3:30 PM,7.5,8:00 AM,,,3:30 PM,7.5,8:00 AM,,,3:30 PM,7.5,8:00 AM,,,3:30 PM,0,,,,,0,,,,,,1300 652 200,,,,,https://www.southernpath.com.au/,23/05/2022 16:15,18450,Wollongong (C),2,9
CID00175,Forster Douglass Hanly Moir Pathology Drive-through Clinic,152.5136299,-32.18847352,Forster Private Hospital,5A South Street,Forster,NSW,2428,1,1,2,1,,,1,1,15,3,8:00 AM,,,11:00 AM,3,8:00 AM,,,11:00 AM,3,8:00 AM,,,11:00 AM,3,8:00 AM,,,11:00 AM,3,8:00 AM,,,11:00 AM,0,,,,,0,,,,,,(02) 9855 6116,,,,,https://www.dhm.com.au/,4/10/2022 8:00,15240,Mid-Coast (A),2,4
CID00177,Frenchs Forest 4Cyte Pathology Walk-in Clinic,151.223654,-33.749078,,4 Russell Avenue,Frenchs Forest,NSW,2086,1,2,2,1,,,1,1,44,8,8:00 AM,,,4:00 PM,8,8:00 AM,,,4:00 PM,8,8:00 AM,,,4:00 PM,8,8:00 AM,,,4:00 PM,8,8:00 AM,,,4:00 PM,4,8:00 AM,,,12:00 PM,0,,,,,,13 42 98,,,,,https://www.4cyte.com.au/,5/10/2022 11:00,15990,Northern Beaches (A),2,7
CID00185,Gosford 4Cyte Pathology Drive-through and Walk-in Clinic,151.336033,-33.394441,,73 Deane Street,Narara,NSW,2250,2,2,2,1,,,1,1,60,10,8:00 AM,,,6:00 PM,10,8:00 AM,,,6:00 PM,10,8:00 AM,,,6:00 PM,10,8:00 AM,,,6:00 PM,10,8:00 AM,,,6:00 PM,0,,,,,10,8:00 AM,,,6:00 PM,,13 42 98,,,,,https://www.4cyte.com.au/,29/09/2022 11:15,11650,Central Coast (C) (NSW),2,8
CID00186,Gosford Hospital Clinic,151.3394105,-33.4203006,,75 Holden Street,Gosford,NSW,2250,1,1,2,1,,,1,1,42,6,9:00 AM,,,3:00 PM,6,9:00 AM,,,3:00 PM,6,9:00 AM,,,3:00 PM,6,9:00 AM,,,3:00 PM,6,9:00 AM,,,3:00 PM,6,9:00 AM,,,3:00 PM,6,9:00 AM,,,3:00 PM,,,,,,,,19/04/2022 10:16,11650,Central Coast (C) (NSW),2,8
CID00188,Goulburn Capital Pathology Drive-through Clinic,149.7103554,-34.75120614,,Seiffert Oval,Goulburn,NSW,2580,2,2,1,1,,,1,1,4,0,,,,,0,,,,,4,8:00 AM,,,12:00 PM,0,,,,,0,,,,,0,,,,,0,,,,,,(02) 6285 9803,,,,,https://www.capitalpath.com.au/,31/10/2022 0:00,13310,Goulburn Mulwaree (A),1,1
CID00190,Grafton Base Hospital Clinic,152.940633,-29.6752381,Grafton Base Hospital,Arthur Street,Grafton,NSW,2460,1,2,2,1,,,1,1,28,4,9:00 AM,,,1:00 PM,4,9:00 AM,,,1:00 PM,4,9:00 AM,,,1:00 PM,4,9:00 AM,,,1:00 PM,4,9:00 AM,,,1:00 PM,4,9:00 AM,,,1:00 PM,4,9:00 AM,,,1:00 PM,,,,,,,,30/05/2022 0:00,11730,Clarence Valley (A),2,3
CID00196,Grenfell Drive-through Clinic,148.167338,-33.894345,Grenfell Community Health,80 Cowra Road,Grenfell,NSW,2810,2,2,1,2,,0458 481 457,1,1,5,1,9:30 AM,,,10:30 AM,1,9:30 AM,,,10:30 AM,1,9:30 AM,,,10:30 AM,1,9:30 AM,,,10:30 AM,1,9:30 AM,,,10:30 AM,0,,,,,0,,,,,,,,,,,,30/05/2022 11:30,18100,Weddin (A),1,1
CID00199,Griffith������,146.0575227,-34.28961374,,56 Banna Avenue,Griffith,NSW,2680,1,2,2,1,,,2,1,16,4,9:00 AM,,,1:00 PM,0,,,,,0,,,,,0,,,,,4,9:00 AM,,,1:00 PM,4,9:00 AM,,,1:00 PM,4,9:00 AM,,,1:00 PM,,,,Children under the age 6 Months will not be tested at this clinic.,,,,26/09/2022 10:00,13450,Griffith (C),1,1
CID00202,Gundagai Hospital Clinic ,148.1019654,-35.05078479,,50 Tor Street,Gundagai,NSW,2722,1,2,2,2,,1800 831 099,1,1,1,0,,,,,0.5,10:00 AM,,,10:30 AM,0,,,,,0,,,,,0.5,10:00 AM,,,10:30 AM,0,,,,,0,,,,,,,,,,,,16/05/2022 12:45,12160,Cootamundra-Gundagai Regional (A),2,3
CID00203,Gundagai Respiratory Clinic,148.0928022,-35.08529564,,134 Mount Street,South Gundagai,NSW,2722,1,1,1,2,https://www.hotdoc.com.au/medical-centres/South-gundagai-NSW-2722/turmut-and-gundagai-respiratory-clinic/doctors?purpose=respiratory,,1,1,2,0,,,,,2,9:00 AM,,,11:00 AM,0,,,,,0,,,,,0,,,,,0,,,,,0,,,,,,,,,,,,27/09/2022 15:00,12160,Cootamundra-Gundagai Regional (A),2,3
CID00207,Haberfield 4Cyte Pathology Drive-through and Walk-in Clinic,151.1336653,-33.88239596,,181 Parramatta Road,Haberfield,NSW,2045,2,2,2,1,,,1,1,91,13,7:00 AM,,,8:00 PM,13,7:00 AM,,,8:00 PM,13,7:00 AM,,,8:00 PM,13,7:00 AM,,,8:00 PM,13,7:00 AM,,,8:00 PM,13,7:00 AM,,,8:00 PM,13,7:00 AM,,,8:00 PM,,13 42 98,,,,,https://www.4cyte.com.au/,29/09/2022 10:16,14170,Inner West (A),2,4
CID00208,Hammondville 4Cyte Pathology Drive-through and Walk-in Clinic,150.9567641,-33.95528973,Moorebank Sports Club,230 Heathcote Road,Hammondville,NSW,2170,2,2,2,1,,,1,1,40,8,8:00 AM,,,4:00 PM,8,8:00 AM,,,4:00 PM,8,8:00 AM,,,4:00 PM,8,8:00 AM,,,4:00 PM,8,8:00 AM,,,4:00 PM,0,,,,,0,,,,,,13 42 98,,,,,https://www.4cyte.com.au/,29/09/2022 10:30,14900,Liverpool (C),2,7
CID00211,Hay Hospital Clinic,144.8569286,-34.50190876,,351 Murray Street,Hay,NSW,2711,1,2,2,1,,,1,1,1,0.5,3:00 PM,,,3:30 PM,0,,,,,0,,,,,0.5,3:00 PM,,,3:30 PM,0,,,,,0,,,,,0,,,,,,,,,,,,26/09/2022 10:01,13850,Hay (A),1,1
CID00212,Hazelbrook Respiratory Clinic,150.4540016,-33.7217326,,7-9 Rosedale Avenue,Hazelbrook,NSW,2779,1,1,2,2,https://www.hotdoc.com.au/medical-centres/hazelbrook-NSW-2779/hazelbrook-respiratory-clinic/doctors?purpose=respiratory,,1,1,48,9,8:30 AM,,,5:30 PM,9,8:30 AM,,,5:30 PM,9,8:30 AM,,,5:30 PM,9,8:30 AM,,,5:30 PM,9,8:30 AM,,,5:30 PM,3,9:00 AM,,,12:00 PM,0,,,,,,,,,,,,19/04/2022 10:45,10900,Blue Mountains (C),2,3
CID00213,Heathcote Histopath Pathology Drive-through Clinic,151.0057911,-34.09184955,,Heathcote Oval,Heathcote,NSW,2233,2,2,1,1,,,1,1,40,8,7:00 AM,,,3:00 PM,8,7:00 AM,,,3:00 PM,8,7:00 AM,,,3:00 PM,8,7:00 AM,,,3:00 PM,8,7:00 AM,,,3:00 PM,0,,,,,0,,,,,,(02) 9878 8111,,,,,https://www.histopath.com.au/,29/09/2022 10:45,17150,Sutherland Shire (A),2,7
CID00214,Helensburgh Respiratory Clinic,150.9810578,-34.191041,,129 Parkes Street,Helensburgh,NSW,2508,1,1,1,2,https://www.hotdoc.com.au/medical-centres/helensburgh-NSW-2508/helensburgh-respiratory-clinic/doctors?purpose=respiratory,,1,1,59.5,8.5,8:30 AM,,,5:00 PM,8.5,8:30 AM,,,5:00 PM,8.5,8:30 AM,,,5:00 PM,8.5,8:30 AM,,,5:00 PM,8.5,8:30 AM,,,5:00 PM,8.5,8:30 AM,,,5:00 PM,8.5,8:30 AM,,,5:00 PM,,,,,,,,19/04/2022 10:45,18450,Wollongong (C),2,9
CID00217,Hinchinbrook 4Cyte Pathology Drive-through and Walk-in Clinic,150.8690417,-33.9256578,Hoxton Park Seven-Day Adventist Church,355 Hoxton Park Road,Hinchinbrook,NSW,2168,2,2,2,1,,,1,1,64,11,7:00 AM,,,6:00 PM,11,7:00 AM,,,6:00 PM,11,7:00 AM,,,6:00 PM,11,7:00 AM,,,6:00 PM,9,7:00 AM,,,4:00 PM,0,,,,,11,7:00 AM,,,6:00 PM,,13 42 98,,,,,https://www.4cyte.com.au/,26/10/2022 11:00,14900,Liverpool (C),2,7
CID00218,Hornsby Clinical Labs Pathology Drive-through Clinic,151.0960105,-33.70465829,Overflow Car Park Hornsby RSL,7-17 Ashley Street,Hornsby,NSW,2077,2,2,1,1,,,1,1,56,8,9:00 AM,,,5:00 PM,8,9:00 AM,,,5:00 PM,8,9:00 AM,,,5:00 PM,8,9:00 AM,,,5:00 PM,8,9:00 AM,,,5:00 PM,8,9:00 AM,,,5:00 PM,8,9:00 AM,,,5:00 PM,,1300 134 111,,,,,https://www.clinicallabs.com.au/about-us/doctor-media-releases/novel-coronavirus-nsw/,27/09/2022 8:45,14000,Hornsby (A),2,2
CID00219,Hornsby Ku-ring-gai Hospital Clinic,151.1137505,-33.70244801,Old Leighton Lodge,"Building 8, Level 2, Derby Road, Gate 5",Hornsby,NSW,2077,1,2,2,1,,,1,1,56,8,8:00 AM,,,4:00 PM,8,8:00 AM,,,4:00 PM,8,8:00 AM,,,4:00 PM,8,8:00 AM,,,4:00 PM,8,8:00 AM,,,4:00 PM,8,8:00 AM,,,4:00 PM,8,8:00 AM,,,4:00 PM,,,,,,,,29/09/2022 9:00,14000,Hornsby (A),2,2
CID00220,Hurstville 4Cyte Pathology Walk-in Clinic,151.103134,-33.968307,,8 Ormonde Parade,Hurstville,NSW,2220,1,2,2,1,,,1,1,70,10,8:00 AM,,,6:00 PM,10,8:00 AM,,,6:00 PM,10,8:00 AM,,,6:00 PM,10,8:00 AM,,,6:00 PM,10,8:00 AM,,,6:00 PM,10,8:00 AM,,,6:00 PM,10,8:00 AM,,,6:00 PM,,13 42 98,,,,,https://www.4cyte.com.au/,29/09/2022 10:16,12930,Georges River (A),2,5
CID00224,Ingleburn Laverty Pathology Walk-in Clinic,150.866831,-33.999279,Pathology Suite 1,47a Oxford Road,Ingleburn,NSW,2565,1,2,2,1,,,1,1,20,4,8:00 AM,,,12:00 PM,4,8:00 AM,,,12:00 PM,4,8:00 AM,,,12:00 PM,4,8:00 AM,,,12:00 PM,4,8:00 AM,,,12:00 PM,0,,,,,0,,,,,,(02) 9005 7005,,,,,https://www.laverty.com.au/,21/09/2022 9:30,11500,Campbelltown (C) (NSW),2,4
CID00225,Inner West Respiratory Clinic,151.1750756,-33.8581685,,21A Elliott Street,Balmain,NSW,2041,1,1,1,2,https://www.hotdoc.com.au/medical-centres/balmain-NSW-2041/balmain-respiratory-clinic/doctors,,1,1,40,9,9:00 AM,,,6:00 PM,9,9:00 AM,,,6:00 PM,9,9:00 AM,,,6:00 PM,9,9:00 AM,,,6:00 PM,4,9:00 AM,,,1:00 PM,0,,,,,0,,,,,,,,,,,,12/09/2022 12:15,14170,Inner West (A),2,4
CID00233,Kempsey Walk-in Clinic,152.820106,-31.06793835,Daisy Turner Kiosk at Kempsey District Hospital,River Street,Kempsey,NSW,2440,1,2,2,1,,,1,1,25,5,8:00 AM,,,1:00 PM,5,8:00 AM,,,1:00 PM,5,8:00 AM,,,1:00 PM,5,8:00 AM,,,1:00 PM,5,8:00 AM,,,1:00 PM,0,,,,,0,,,,,,,,,,,,29/09/2022 16:00,14350,Kempsey (A),2,2
CID00234,Kempsey Respiratory Clinic,152.8396531,-31.0799732,,35 Belgrave Street,Kempsey,NSW,2440,1,2,1,2,https://www.hotdoc.com.au/medical-centres/kempsey-NSW-2440/kempsey-respiratory-clinic/doctors?purpose=respiratory,,1,1,33.5,7.25,9:15 AM,,,4:30 PM,7.25,9:15 AM,,,4:30 PM,7.25,9:15 AM,,,4:30 PM,7.25,9:15 AM,,,4:30 PM,4.5,10:00 AM,,,2:30 PM,0,,,,,0,,,,,,,,,,,,19/04/2022 11:45,14350,Kempsey (A),2,2
CID00237,Killara Histopath Pathology Walk-in Clinic,151.164548,-33.767487,Dalcross Private Hospital Killara,28 Stanhope Road,Killara,NSW,2071,1,2,2,1,,,1,1,56,8,8:00 AM,,,4:00 PM,8,8:00 AM,,,4:00 PM,8,8:00 AM,,,4:00 PM,8,8:00 AM,,,4:00 PM,8,8:00 AM,,,4:00 PM,8,8:00 AM,,,4:00 PM,8,8:00 AM,,,4:00 PM,,(02) 9878 8111,,,,,https://www.histopath.com.au/,29/09/2022 10:45,14500,Ku-ring-gai (A),2,3
CID00240,Kingswood Clinical Labs Pathology Drive-through Clinic,150.7132083,-33.77549487,,142-150 Bringelly Road,Kingswood,NSW,2747,2,2,1,1,,,1,1,56,8,8:00 AM,,,4:00 PM,8,8:00 AM,,,4:00 PM,8,8:00 AM,,,4:00 PM,8,8:00 AM,,,4:00 PM,8,8:00 AM,,,4:00 PM,8,8:00 AM,,,4:00 PM,8,8:00 AM,,,4:00 PM,,1300 134 111,,,,,https://www.clinicallabs.com.au/about-us/doctor-media-releases/novel-coronavirus-nsw/,14/09/2022 16:00,16350,Penrith (C),2,8
CID00250,Lakemba Respiratory Clinic,151.0774665,-33.9211832,,96 Haldon Street,Lakemba,NSW,2195,1,1,2,1,https://www.hotdoc.com.au/medical-centres/lakemba-NSW-2195/lakemba-respiratory-clinic/doctors?purpose=respiratory,,1,1,84,12,8:00 AM,,,8:00 PM,12,8:00 AM,,,8:00 PM,12,8:00 AM,,,8:00 PM,12,8:00 AM,,,8:00 PM,12,8:00 AM,,,8:00 PM,12,8:00 AM,,,8:00 PM,12,8:00 AM,,,8:00 PM,,,,,"For enquiries, please call 0420 253 456.",,,28/09/2022 15:00,11570,Canterbury-Bankstown (A),2,9
CID00253,Lidcombe Histopath Pathology Drive-through and Walk-in Clinic,151.0508422,-33.88479304,The Sydney University Cumberland Campus,Weeroona Road,Lidcombe,NSW,2141,2,2,2,1,,,1,1,70,10,8:00 AM,,,6:00 PM,10,8:00 AM,,,6:00 PM,10,8:00 AM,,,6:00 PM,10,8:00 AM,,,6:00 PM,10,8:00 AM,,,6:00 PM,10,8:00 AM,,,6:00 PM,10,8:00 AM,,,6:00 PM,,,,,,,https://www.histopath.com.au/,29/09/2022 10:00,12380,Cumberland (A),2,5
CID00256,Lismore 4Cyte Pathology Drive-through Clinic,153.2824323,-28.80626056,,47-49 Dawson Street,Lismore,NSW,2480,2,2,1,1,,,1,1,45,9,7:00 AM,,,4:00 PM,9,7:00 AM,,,4:00 PM,9,7:00 AM,,,4:00 PM,9,7:00 AM,,,4:00 PM,9,7:00 AM,,,4:00 PM,0,,,,,0,,,,,,13 42 98,,,,,https://www.4cyte.com.au/,22/06/2022 14:01,14850,Lismore (C),1,1
CID00260,Lithgow Hospital Clinic,150.12742,-33.498704,,Corner of Col Drewe Drive and Great Western Highway,Lithgow,NSW,2790,1,1,2,1,,,1,1,9,3,9:00 AM,,,12:00 PM,0,,,,,3,9:00 AM,,,12:00 PM,0,,,,,3,9:00 AM,,,12:00 PM,0,,,,,0,,,,,,,,,,,,25/06/2022 11:15,14870,Lithgow (C),1,1
CID00261,Liverpool 4Cyte Pathology Walk-in Clinic,150.911607,-33.916223,,169 Elizabeth Drive,Liverpool,NSW,2170,1,1,2,1,,,1,1,63,9,8:00 AM,,,5:00 PM,9,8:00 AM,,,5:00 PM,9,8:00 AM,,,5:00 PM,9,8:00 AM,,,5:00 PM,9,8:00 AM,,,5:00 PM,9,8:00 AM,,,5:00 PM,9,8:00 AM,,,5:00 PM,,13 42 98,,,,,https://www.4cyte.com.au/,29/09/2022 10:17,14900,Liverpool (C),2,7
CID00262,Liverpool Clinical Labs Pathology Drive-through Clinic,150.925499,-33.925853,Rear Car Park,2-4 Speed Street,Liverpool,NSW,2170,2,2,1,1,,,1,1,52,8,9:00 AM,,,5:00 PM,8,9:00 AM,,,5:00 PM,8,9:00 AM,,,5:00 PM,8,9:00 AM,,,5:00 PM,8,9:00 AM,,,5:00 PM,6,9:00 AM,,,3:00 PM,6,9:00 AM,,,3:00 PM,,1300 134 111,,,,,https://www.clinicallabs.com.au/about-us/doctor-media-releases/novel-coronavirus-nsw/,30/09/2022 12:45,14900,Liverpool (C),2,7
CID00263,Liverpool Douglass Hanly Moir Pathology Drive-through Clinic,150.914892,-33.925006,The Whitlam Leisure Centre,90 Memorial Avenue,Liverpool,NSW,2170,2,2,1,1,,,1,1,35,5,8:00 AM,,,1:00 PM,5,8:00 AM,,,1:00 PM,5,8:00 AM,,,1:00 PM,5,8:00 AM,,,1:00 PM,5,8:00 AM,,,1:00 PM,5,8:00 AM,,,1:00 PM,5,8:00 AM,,,1:00 PM,,(02) 9855 6116,,,,,https://www.dhm.com.au/,28/09/2022 15:00,14900,Liverpool (C),2,7
CID00269,Macquarie Park Douglass Hanly Moir Pathology Drive-through Clinic,151.122811,-33.785228,,95 Epping Road,Macquarie Park,NSW,2113,2,2,1,1,,,1,1,56,8,7:30 AM,,,3:30 PM,8,7:30 AM,,,3:30 PM,8,7:30 AM,,,3:30 PM,8,7:30 AM,,,3:30 PM,8,7:30 AM,,,3:30 PM,8,7:30 AM,,,3:30 PM,8,7:30 AM,,,3:30 PM,,(02) 9855 6116,,,,,https://www.dhm.com.au/,16/09/2022 9:30,16700,Ryde (C),2,6
CID00270,Manly Clinical Labs Pathology Walk-in Clinic,151.2889222,-33.79874469,,19-21 S Steyne,Manly,NSW,2095,1,2,2,1,,,1,1,20,4,8:00 AM,,,12:00 PM,4,8:00 AM,,,12:00 PM,4,8:00 AM,,,12:00 PM,4,8:00 AM,,,12:00 PM,4,8:00 AM,,,12:00 PM,0,,,,,0,,,,,,1300 134 111,,,,,https://www.clinicallabs.com.au/about-us/doctor-media-releases/novel-coronavirus-nsw/,28/10/2022 13:15,15990,Northern Beaches (A),2,7
CID00272,Maroubra / Heffron Park Histopath Pathology Drive-through Clinic,151.2318157,-33.94964625,Heffron Park Car Park,Corner������of Fitzgerald Avenue an,Maroubra,NSW,2035,2,2,1,1,,,1,1,45,9,7:00 AM,,,4:00 PM,9,7:00 AM,,,4:00 PM,9,7:00 AM,,,4:00 PM,9,7:00 AM,,,4:00 PM,9,7:00 AM,,,4:00 PM,0,,,,,0,,,,,,(02) 9878 8111,,,,,https://www.histopath.com.au/,29/09/2022 10:45,16550,Randwick (C),2,5
CID00276,Mascot 4Cyte Pathology Drive-through and Walk-in Clinic,151.1859493,-33.92891969,,5-11 Ewan Street,Mascot,NSW,2020,2,2,2,1,,,1,1,70,10,8:00 AM,,,6:00 PM,10,8:00 AM,,,6:00 PM,10,8:00 AM,,,6:00 PM,10,8:00 AM,,,6:00 PM,10,8:00 AM,,,6:00 PM,10,8:00 AM,,,6:00 PM,10,8:00 AM,,,6:00 PM,,13 42 98,,,,,https://www.4cyte.com.au/,29/09/2022 10:17,10500,Bayside (A),2,5
CID00285,Minchinbury Histopath Pathology Drive-through Clinic,150.828389,-33.78089,,Great Western Highway,Minchinbury,NSW,2770,2,2,1,1,,,1,1,56,8,8:00 AM,,,4:00 PM,8,8:00 AM,,,4:00 PM,8,8:00 AM,,,4:00 PM,8,8:00 AM,,,4:00 PM,8,8:00 AM,,,4:00 PM,8,8:00 AM,,,4:00 PM,8,8:00 AM,,,4:00 PM,,(02) 9878 8111,,,,,https://www.histopath.com.au/,29/09/2022 11:30,10750,Blacktown (C),2,9
CID00288,Miranda Medical Centre,151.10199,-34.033695,,573 Kingsway,Miranda,NSW,2228,1,1,1,2,,(02) 9540 1044,1,1,50,8,8:00 AM,,,4:00 PM,8,8:00 AM,,,4:00 PM,8,8:00 AM,,,4:00 PM,8,8:00 AM,,,4:00 PM,8,8:00 AM,,,4:00 PM,5,8:00 AM,,,1:00 PM,5,8:00 AM,,,1:00 PM,,,,,,,,18/01/2022 10:30,17150,Sutherland Shire (A),2,7
CID00289,Mittagong Respiratory Clinic,150.4430588,-34.4523287,,58 Bowral Road,Mittagong,NSW,2575,1,1,2,2,https://www.hotdoc.com.au/medical-centres/mittagong-NSW-2575/mittagong-respiratory-clinic/doctors?purpose=respiratory,,1,1,62,9,8:00 AM,,,5:00 PM,9,8:00 AM,,,5:00 PM,9,8:00 AM,,,5:00 PM,9,8:00 AM,,,5:00 PM,9,8:00 AM,,,5:00 PM,9,8:00 AM,,,5:00 PM,8,9:00 AM,,,5:00 PM,,,,,,,,2/08/2022 16:00,18350,Wingecarribee (A),2,2
CID00290,Molong Multi-Purpose Health Service Clinic,148.8595381,-33.08611327,,King Street,Molong,NSW,2866,1,2,2,2,,(02) 6369 4100,1,1,2,0,,,,,1,10:00 AM,,,11:00 AM,0,,,,,1,10:00 AM,,,11:00 AM,0,,,,,0,,,,,0,,,,,,,,,"Bookings can be made by calling the MPS 8.30am to 5pm, Monday to Friday.",,,25/05/2022 12:01,11400,Cabonne (A),1,1
CID00294,Moree Respiratory Clinic,149.8297867,-29.4744629,,140 Anne Street,Moree,NSW,2400,1,1,2,2,https://www.hotdoc.com.au/medical-centres/moree-NSW-2400/moree-respiratory-clinic/doctors?purpose=respiratory,,1,1,31.5,6.5,8:30 AM,,,3:00 PM,6.5,8:30 AM,,,3:00 PM,6.5,8:30 AM,,,3:00 PM,6.5,8:30 AM,,,3:00 PM,5.5,8:30 AM,,,2:00 PM,0,,,,,0,,,,,,,,,,,,19/04/2022 11:47,15300,Moree Plains (A),1,1
CID00295,Morisset 4Cyte Pathology Drive-through Clinic,151.4788513,-33.10737207,Morisset Showground,40 Ourimbah Street,Morisset,NSW,2264,2,2,1,1,,,1,1,40,8,7:30 AM,,,3:30 PM,8,7:30 AM,,,3:30 PM,8,7:30 AM,,,3:30 PM,8,7:30 AM,,,3:30 PM,8,7:30 AM,,,3:30 PM,0,,,,,0,,,,,,13 42 98,,,,,https://www.4cyte.com.au/,17/09/2022 12:46,14650,Lake Macquarie (C),2,2
CID00302,Mudgee Health Service Clinic,149.6070859,-32.57106668,,30 Meares Street,Mudgee,NSW,2850,2,2,1,1,,,1,1,1,0,,,,,0.5,10:00 AM,,,10:30 AM,0,,,,,0,,,,,0.5,10:00 AM,,,10:30 AM,0,,,,,0,,,,,,,,,Appointments are preferred - call 6371 9700 to make an appointment.,,,3/06/2022 13:00,15270,Mid-Western Regional (A),2,3
CID00303,Mudgee Respiratory Clinic,149.5815377,-32.60344237,Mudgee Showground Pavillion,Duro Street,Mudgee,NSW,2850,1,1,1,2,https://www.hotdoc.com.au/medical-centres/mudgee-NSW-2850/mudgee-respiratory-clinic/doctors?purpose=respiratory,6362 4031,1,1,22.5,4.5,1:00 PM,,,5:30 PM,4.5,1:00 PM,,,5:30 PM,4.5,1:00 PM,,,5:30 PM,4.5,1:00 PM,,,5:30 PM,4.5,1:00 PM,,,5:30 PM,0,,,,,0,,,,,,,,,,,,19/04/2022 15:30,15270,Mid-Western Regional (A),2,3
CID00306,Murwillumbah 4Cyte Pathology Drive-through Clinic,153.4055466,-28.32845299,,250 Tweed Valley Way,Murwillumbah,NSW,2484,2,2,1,1,,,1,1,45,9,7:00 AM,,,4:00 PM,9,7:00 AM,,,4:00 PM,9,7:00 AM,,,4:00 PM,9,7:00 AM,,,4:00 PM,9,7:00 AM,,,4:00 PM,0,,,,,0,,,,,,13 42 98,,,,,https://www.4cyte.com.au/,23/06/2022 9:30,17550,Tweed (A),2,4
CID00307,Murwillumbah Respiratory Clinic,153.3962113,-28.3290267,,14 King Street,Murwillumbah,NSW,2484,1,1,1,2,https://www.hotdoc.com.au/medical-centres/murwillumbah-NSW-2484/murwillumbah-respiratory-clinic/doctors?purpose=respiratory,,1,1,20,4,9:00 AM,,,1:00 PM,4,9:00 AM,,,1:00 PM,4,9:00 AM,,,1:00 PM,4,9:00 AM,,,1:00 PM,4,9:00 AM,,,1:00 PM,0,,,,,0,,,,,,,,,,,,19/04/2022 12:00,17550,Tweed (A),2,4
CID00309,Muswellbrook Hospital Clinic,150.899954,-32.264481,,Brentwood Street,Muswellbrook,NSW,2333,1,2,2,1,,,1,1,3,1,2:15 PM,,,3:15 PM,0,,,,,1,2:15 PM,,,3:15 PM,0,,,,,1,2:15 PM,,,3:15 PM,0,,,,,0,,,,,,,,,,,,31/05/2022 9:45,15650,Muswellbrook (A),1,1
CID00316,Narrandera Hospital Clinic,146.548382,-34.74345828,,54 Adams Street,Narrandera,NSW,2700,1,1,2,2,,(02) 6951 0200,1,1,0.5,0,,,,,0,,,,,0.5,2:30 PM,,,3:00 PM,0,,,,,0,,,,,0,,,,,0,,,,,,,,,Please contact Narrandera Hospital to make a booking for your COVID test on (02) 6951 0200.,,,26/07/2022 16:00,15800,Narrandera (A),1,1
CID00317,Narromine Health Service Clinic,148.2399462,-32.24294136,,128 Cathundril Street,Narromine,NSW,2821,2,1,2,1,,,1,1,15,5,9:30 AM,,,2:30 PM,0,,,,,5,9:30 AM,,,2:30 PM,0,,,,,5,9:30 AM,,,2:30 PM,0,,,,,0,,,,,,,,,,,,1/09/2022 0:00,15850,Narromine (A),2,2
CID00320,Nepean Hospital Clinic,150.712328,-33.758994,"Level 1, West Block entrance",Derby Street,Kingswood,NSW,2747,1,1,2,1,,,1,1,35,7,9:00 AM,12:30 PM,1:00 PM,4:30 PM,7,9:00 AM,12:30 PM,1:00 PM,4:30 PM,7,9:00 AM,12:30 PM,1:00 PM,4:30 PM,7,9:00 AM,12:30 PM,1:00 PM,4:30 PM,7,9:00 AM,12:30 PM,1:00 PM,4:30 PM,0,,,,,0,,,,,,,,,,,,25/07/2022 13:15,16350,Penrith (C),2,8
CID00324,North Ryde Laverty Pathology Drive-through Clinic,151.123538,-33.781721,,60 Waterloo Road,North Ryde,NSW,2113,2,2,1,1,,,1,1,63,9,8:00 AM,,,5:00 PM,9,8:00 AM,,,5:00 PM,9,8:00 AM,,,5:00 PM,9,8:00 AM,,,5:00 PM,9,8:00 AM,,,5:00 PM,9,8:00 AM,,,5:00 PM,9,8:00 AM,,,5:00 PM,,(02) 9005 7005,,,,,https://www.laverty.com.au/,30/09/2022 12:45,16700,Ryde (C),2,6
CID00326,Frenchs Forest Clinical Labs Pathology Drive-through Clinic,151.233019,-33.751134,Northern Beaches Hospital,105 Frenchs Forest Road (West),Frenchs Forest,NSW,2086,2,2,1,1,,,1,1,56,8,9:00 AM,,,5:00 PM,8,9:00 AM,,,5:00 PM,8,9:00 AM,,,5:00 PM,8,9:00 AM,,,5:00 PM,8,9:00 AM,,,5:00 PM,8,9:00 AM,,,5:00 PM,8,9:00 AM,,,5:00 PM,,1300 134 111,,,"For general enquiries, please select option 5 when calling the results line.",,https://www.clinicallabs.com.au/,27/09/2022 8:45,15990,Northern Beaches (A),2,7
CID00328,Nowra Southern.IML Pathology Drive-through Clinic,150.599965,-34.873694,,57 Junction Street,Nowra,NSW,2540,2,2,1,1,,,1,1,43,8,9:00 AM,,,5:00 PM,8,9:00 AM,,,5:00 PM,8,9:00 AM,,,5:00 PM,8,9:00 AM,,,5:00 PM,8,9:00 AM,,,5:00 PM,3,9:00 AM,,,12:00 PM,0,,,,,,1300 652 200,,,,,https://www.clinicallabs.com.au/about-us/doctor-media-releases/novel-coronavirus-nsw/,19/04/2022 12:02,16950,Shoalhaven (C),2,7
CID00331,Oatlands 4Cyte Pathology Drive-through Clinic,151.030409,-33.803187,Dundas Seventh-Day Adventist Church,40 Kissing Point Road,Oatlands,NSW,2117,2,2,1,1,,,1,1,60,10,8:00 AM,,,6:00 PM,10,8:00 AM,,,6:00 PM,10,8:00 AM,,,6:00 PM,10,8:00 AM,,,6:00 PM,10,8:00 AM,,,6:00 PM,0,,,,,10,8:00 AM,,,6:00 PM,,13 42 98,,,,,https://www.4cyte.com.au/,29/09/2022 10:30,16260,Parramatta (C),2,5
CID00335,Ochre Health - Gunnedah Respiratory Clinic,150.244934,-30.978705,Gunnedah Showground,Oxley Highway,Gunnedah,NSW,2380,1,1,1,2,https://ochrehealth.com.au/medical-centre-boggabri/,(02) 6760 9765,1,1,8,4,12:30 PM,,,4:30 PM,0,,,,,4,12:30 PM,,,4:30 PM,0,,,,,0,,,,,0,,,,,0,,,,,,,,,"Please note if this clinic is unavailable on a particular day, you can book at another Ochre Health Boggabri clinic.",,,26/11/2021 16:35,13550,Gunnedah (A),1,1
CID00337,Junee Hospital Testing Clinic,147.5792092,-34.86493077,,67 Broadway Street,Junee,NSW,2663,1,2,2,1,,,1,1,2,0,,,,,0,,,,,1,11:00 AM,,,12:00 PM,1,11:00 AM,,,12:00 PM,0,,,,,0,,,,,0,,,,,,,,,,,,17/09/2022 12:45,14300,Junee (A),1,1
CID00338,Oran Park Douglas Hanly Moir Pathology Drive-through Clinic,150.7411003,-33.99812185,,Corner Oran Park Drive and Dick Johnson Drive,Oran Park,NSW,2570,2,2,1,1,,,1,1,30,5,8:00 AM,,,1:00 PM,5,8:00 AM,,,1:00 PM,5,8:00 AM,,,1:00 PM,5,8:00 AM,,,1:00 PM,5,8:00 AM,,,1:00 PM,5,8:00 AM,,,1:00 PM,0,,,,,,(02) 9855 6116,,,,,https://www.dhm.com.au/,28/09/2022 15:00,11450,Camden (A),2,2
CID00341,Orange Laverty Pathology Walk-in Clinic,149.1014492,-33.28748845,,5-8 McNamara Street,Orange,NSW,2800,1,2,2,1,,,1,1,44,8,8:00 AM,,,4:00 PM,8,8:00 AM,,,4:00 PM,8,8:00 AM,,,4:00 PM,8,8:00 AM,,,4:00 PM,8,8:00 AM,,,4:00 PM,4,8:00 AM,,,12:00 PM,0,,,,,,(02) 9005 7005,,,,,https://www.laverty.com.au/,27/09/2022 8:45,16150,Orange (C),2,3
CID00342,Orange Respiratory Clinic - Bloomfield Medical Centre,149.0912789,-33.31589208,Bloomfield Medical Centre,1521 Forest Road,Orange,NSW,2800,1,1,1,2,https://www.hotdoc.com.au/medical-centres/orange-NSW-2800/orange-respiratory-clinic/doctors?purpose=respiratory,,1,1,20,4,8:00 AM,,,12:00 PM,4,8:00 AM,,,12:00 PM,4,8:00 AM,,,12:00 PM,4,8:00 AM,,,12:00 PM,4,8:00 AM,,,12:00 PM,0,,,,,0,,,,,,,,,,,,26/11/2021 16:35,16150,Orange (C),2,3
CID00343,Parkes Health Service,148.1894438,-33.12466366,Water Treatment Plant - visitor car park,124 Webb Street,Parkes,NSW,2870,1,2,2,1,,,1,1,10,2,10:00 AM,,,12:00 PM,2,10:00 AM,,,12:00 PM,2,10:00 AM,,,12:00 PM,2,10:00 AM,,,12:00 PM,2,10:00 AM,,,12:00 PM,0,,,,,0,,,,,,,,,,,,30/05/2022 17:30,16200,Parkes (A),1,1
CID00345,Parklea Clinical Labs Pathology Drive-through Clinic,150.9324037,-33.7228419,Parklea Markets,601 Sunnyholt Road,Parklea,NSW,2768,2,2,1,1,,,1,1,52.5,7.5,8:00 AM,,,3:30 PM,7.5,8:00 AM,,,3:30 PM,7.5,8:00 AM,,,3:30 PM,7.5,8:00 AM,,,3:30 PM,7.5,8:00 AM,,,3:30 PM,7.5,8:00 AM,,,3:30 PM,7.5,8:00 AM,,,3:30 PM,,1300 134 111,,,,,https://www.clinicallabs.com.au/about-us/doctor-media-releases/novel-coronavirus-nsw/,15/09/2022 10:30,10750,Blacktown (C),2,9
CID00346,Parramatta Clinical Labs Pathology Drive-through Clinic,151.021491,-33.8078692,University of Western Sydney North Campus,70 Pemberton Street,Parramatta,NSW,2150,2,2,1,1,,,1,1,63,9,8:00 AM,,,5:00 PM,9,8:00 AM,,,5:00 PM,9,8:00 AM,,,5:00 PM,9,8:00 AM,,,5:00 PM,9,8:00 AM,,,5:00 PM,9,8:00 AM,,,5:00 PM,9,8:00 AM,,,5:00 PM,,1300 134 111,,,,,https://www.clinicallabs.com.au/about-us/doctor-media-releases/novel-coronavirus-nsw/,16/09/2022 9:31,16260,Parramatta (C),2,5
CID00352,Penrith Douglas Hanly Moir Pathology Drive-through Clinic,150.6878381,-33.75189156,Penway Place,6 Mulgoa Road,Penrith,NSW,2750,2,2,1,1,,,1,1,35,5,8:00 AM,,,1:00 PM,5,8:00 AM,,,1:00 PM,5,8:00 AM,,,1:00 PM,5,8:00 AM,,,1:00 PM,5,8:00 AM,,,1:00 PM,5,8:00 AM,,,1:00 PM,5,8:00 AM,,,1:00 PM,,(02) 9855 6116,,,,,https://www.dhm.com.au/,28/09/2022 15:00,16350,Penrith (C),2,8
CID00354,Penrith Clinical Labs Pathology Walk-in Clinic,150.6960297,-33.75284227,,489 High Street,Penrith,NSW,2750,1,1,2,1,,,1,1,35,7,8:30 AM,,,3:30 PM,7,8:30 AM,,,3:30 PM,7,8:30 AM,,,3:30 PM,7,8:30 AM,,,3:30 PM,7,8:30 AM,,,3:30 PM,0,,,,,0,,,,,,(02) 8745 6500,,,,,https://www.clinicallabs.com.au/,28/10/2022 13:15,16350,Penrith (C),2,8
CID00355,Penrith Respiratory Clinic,150.6729235,-33.7698966,,2227 Wolseley Street,Jamisontown,NSW,2750,1,1,2,2,https://www.hotdoc.com.au/medical-centres/jamiSuntown-NSW-2750/penrith-respiratory-clinic/doctors?purpose=respiratory,,1,1,20,4,9:00 AM,,,1:00 PM,4,9:00 AM,,,1:00 PM,4,9:00 AM,,,1:00 PM,4,9:00 AM,,,1:00 PM,4,9:00 AM,,,1:00 PM,0,,,,,0,,,,,,,,,,,,19/04/2022 12:30,16350,Penrith (C),2,8
CID00356,Picton Respiratory Clinic,150.613686,-34.16883778,,9 Margaret Street,Picton,NSW,2571,2,2,2,2,,1300 545 245,1,1,41,7.5,9:00 AM,12:30 PM,1:30 PM,5:30 PM,7.5,9:00 AM,12:30 PM,1:30 PM,5:30 PM,7.5,9:00 AM,12:30 PM,1:30 PM,5:30 PM,7.5,9:00 AM,12:30 PM,1:30 PM,5:30 PM,7.5,9:00 AM,12:30 PM,1:30 PM,5:30 PM,3.5,9:00 AM,,,12:30 PM,0,,,,,,,,,,,,8/06/2022 14:15,18400,Wollondilly (A),1,1
CID00360,Prestons 4Cyte Pathology Drive-through and Walk-in Clinic,150.874204,-33.951824,Ash Road Sporting Complex,Ash Road,Prestons,NSW,2170,2,2,2,1,,,1,1,45,9,7:00 AM,,,4:00 PM,9,7:00 AM,,,4:00 PM,9,7:00 AM,,,4:00 PM,9,7:00 AM,,,4:00 PM,9,7:00 AM,,,4:00 PM,0,,,,,0,,,,,,,,,,,https://www.4cyte.com.au/,29/09/2022 10:30,14900,Liverpool (C),2,7
CID00362,Prince of Wales Hospital Clinic,151.239173,-33.919047,Building 14B Ground Floor,Avoca Street,Randwick,NSW,2031,1,2,2,1,,,1,1,56,8,9:00 AM,,,5:00 PM,8,9:00 AM,,,5:00 PM,8,9:00 AM,,,5:00 PM,8,9:00 AM,,,5:00 PM,8,9:00 AM,,,5:00 PM,8,9:00 AM,,,5:00 PM,8,9:00 AM,,,5:00 PM,,,,"The Sydney Children���������s Hospital COVID-19 Assessment Clinic has moved to join the Prince of Wales Hospital COVID-19 Assessment Clinic (Avoca Street, Randwick). Paediatric staff are on site to support children of al",,,,7/10/2022 20:00,16550,Randwick (C),2,5
CID00363,Quakers Hill Clinical Labs Drive-through Clinic,150.881433,-33.736553,Melrose Park,6 Melrose Avenue,Quakers Hill,NSW,2763,2,2,1,1,,,1,1,56,8,9:00 AM,,,5:00 PM,8,9:00 AM,,,5:00 PM,8,9:00 AM,,,5:00 PM,8,9:00 AM,,,5:00 PM,8,9:00 AM,,,5:00 PM,8,9:00 AM,,,5:00 PM,8,9:00 AM,,,5:00 PM,,,,,,,https://www.clinicallabs.com.au/,19/09/2022 0:00,10750,Blacktown (C),2,9
CID00364,Quakers Hill Histopath Pathology Drive-through Clinic,150.8752647,-33.72669223,"Western Sydney University Quakers Hill Campus, Carpark 8",Warawara Circuit,Quakers Hill NSW,NSW,2763,2,2,1,1,,,1,1,56,8,8:00 AM,,,4:00 PM,8,8:00 AM,,,4:00 PM,8,8:00 AM,,,4:00 PM,8,8:00 AM,,,4:00 PM,8,8:00 AM,,,4:00 PM,8,8:00 AM,,,4:00 PM,8,8:00 AM,,,4:00 PM,,(02) 9878 8111,,,,,https://www.histopath.com.au/,29/09/2022 10:46,10750,Blacktown (C),2,9
CID00367,Queanbeyan East Histopath Pathology Drive-through Clinic,149.2419341,-35.34521435,Seiffert Oval,36 Thurralilly Street,Queanbeyan East,NSW,2620,2,2,1,1,,,1,1,56,8,8:00 AM,,,4:00 PM,8,8:00 AM,,,4:00 PM,8,8:00 AM,,,4:00 PM,8,8:00 AM,,,4:00 PM,8,8:00 AM,,,4:00 PM,8,8:00 AM,,,4:00 PM,8,8:00 AM,,,4:00 PM,,(02) 9878 8111,,,,,https://www.histopath.com.au/,29/09/2022 10:46,16490,Queanbeyan-Palerang Regional (A),1,1
CID00370,Quirindi Testing Clinic,150.676714,-31.500098,,50 Nowland Street,Quirindi,NSW,2343,1,2,2,2,,6746 0200,1,1,49,7,9:00 AM,,,4:00 PM,7,9:00 AM,,,4:00 PM,7,9:00 AM,,,4:00 PM,7,9:00 AM,,,4:00 PM,7,9:00 AM,,,4:00 PM,7,9:00 AM,,,4:00 PM,7,9:00 AM,,,4:00 PM,,,,If children are symptomatic they will be sent to the Emergency Department for assessment.,Booking can be made 8:30am-4pm Monday to Friday.,,,31/05/2022 9:46,14920,Liverpool Plains (A),1,1
CID00371,Randwick Laverty Pathology Walk-In Clinic,151.240763,-33.91658,Ground Floor,164 Belmore Road,Randwick,NSW,2031,1,1,2,1,,,1,1,10,2,2:00 PM,,,4:00 PM,2,2:00 PM,,,4:00 PM,2,2:00 PM,,,4:00 PM,2,2:00 PM,,,4:00 PM,2,2:00 PM,,,4:00 PM,0,,,,,0,,,,,,(02) 9005 7005,,,,,https://www.laverty.com.au/,21/09/2022 9:30,16550,Randwick (C),2,5
CID00372,Moss Vale Histopath Pathology Drive-through and Walk-in Clinic,150.373431,-34.54072778,Lackey Park,100 Lackey Road,Moss Vale,NSW,2577,2,2,2,1,,,1,1,49,7,8:00 AM,,,3:00 PM,7,8:00 AM,,,3:00 PM,7,8:00 AM,,,3:00 PM,7,8:00 AM,,,3:00 PM,7,8:00 AM,,,3:00 PM,7,8:00 AM,,,3:00 PM,7,8:00 AM,,,3:00 PM,,(02) 9878 8111,,,,,https://www.histopath.com.au/,29/09/2022 10:46,18350,Wingecarribee (A),2,2
CID00374,Raymond Terrace Histopath Pathology Drive-through Clinic,151.7830534,-32.75872647,Lakeside Leisure Way Centre,4 Leisure Way,Raymond Terrace,NSW,2324,2,2,1,1,,,1,1,56,8,8:00 AM,,,4:00 PM,8,8:00 AM,,,4:00 PM,8,8:00 AM,,,4:00 PM,8,8:00 AM,,,4:00 PM,8,8:00 AM,,,4:00 PM,8,8:00 AM,,,4:00 PM,8,8:00 AM,,,4:00 PM,,(02) 9878 8111,,,,,https://www.histopath.com.au/,29/09/2022 10:46,16400,Port Stephens (A),2,2
CID00375,Raymond Terrace Respiratory Clinic,151.74012,-32.764694,,4 Jacaranda Avenue,Raymond Terrace,NSW,2324,2,2,1,2,https://www.hotdoc.com.au/medical-centres/raymond-terrace-NSW-2324/raymond-terrace-respiratory-clinic/doctors?purpose=respiratory,,1,1,30,8,9:00 AM,,,5:00 PM,8,9:00 AM,,,5:00 PM,8,9:00 AM,,,5:00 PM,3,9:00 AM,,,12:00 PM,3,9:00 AM,,,12:00 PM,0,,,,,0,,,,,,,,,,Closed on public holidays.,,11/04/2022 18:01,16400,Port Stephens (A),2,2
CID00379,Richmond Histopath Pathology Drive-through Clinic,150.7467727,-33.61441974,Western Sydney University Hawkesbury Campus Car Park,47 off Vines Drive,Richmond,NSW,2753,2,2,1,1,,,1,1,56,8,8:00 AM,,,4:00 PM,8,8:00 AM,,,4:00 PM,8,8:00 AM,,,4:00 PM,8,8:00 AM,,,4:00 PM,8,8:00 AM,,,4:00 PM,8,8:00 AM,,,4:00 PM,8,8:00 AM,,,4:00 PM,,(02) 9878 8111,,,,,https://www.histopath.com.au/,29/09/2022 10:46,13800,Hawkesbury (C),2,3
CID00381,Riverwood Clinical Labs Pathology Walk-In Clinic,151.0461925,-33.94979166,Riverwood Park,79 Coleridge Street,Riverwood,NSW,2210,1,2,2,1,,,1,1,52,8,8:00 AM,,,4:00 PM,8,8:00 AM,,,4:00 PM,8,8:00 AM,,,4:00 PM,8,8:00 AM,,,4:00 PM,8,8:00 AM,,,4:00 PM,6,9:00 AM,,,3:00 PM,6,9:00 AM,,,3:00 PM,,(02) 8745 6500,,,,,https://www.clinicallabs.com.au/,28/09/2022 14:15,12930,Georges River (A),2,5
CID00383,Rockdale 4Cyte Pathology Drive-through and Walk-in Clinic,151.1381166,-33.95578003,,594-596 Princes Highway,Rockdale,NSW,2216,2,2,2,1,,,1,1,70,10,8:00 AM,,,6:00 PM,10,8:00 AM,,,6:00 PM,10,8:00 AM,,,6:00 PM,10,8:00 AM,,,6:00 PM,10,8:00 AM,,,6:00 PM,10,8:00 AM,,,6:00 PM,10,8:00 AM,,,6:00 PM,,13 42 98,,,,,https://www.4cyte.com.au/,29/09/2022 10:45,10500,Bayside (A),2,5
CID00385,Rosebery 4Cyte Pathology Walk-in Clinic,151.2001607,-33.9172624,Shop 2,781 Hayes Road,Rosebery,NSW,2108,1,2,2,1,,,1,1,70,10,8:00 AM,,,6:00 PM,10,8:00 AM,,,6:00 PM,10,8:00 AM,,,6:00 PM,10,8:00 AM,,,6:00 PM,10,8:00 AM,,,6:00 PM,10,8:00 AM,,,6:00 PM,10,8:00 AM,,,6:00 PM,,13 42 98,,,,,https://www.4cyte.com.au/,29/09/2022 11:01,15990,Northern Beaches (A),2,7
CID00387,Northshore Roseville Respiratory Clinic,151.1757788,-33.784101,,132A Pacific Highway,Roseville,NSW,2069,1,2,2,2,https://www.hotdoc.com.au/medical-centres/roseville-NSW-2069/roseville-respiratory-clinic/doctors?purpose=respiratory,0458 604 096,1,1,69,10.5,7:30 AM,,,6:00 PM,10.5,7:30 AM,,,6:00 PM,10.5,7:30 AM,,,6:00 PM,10.5,7:30 AM,,,6:00 PM,10.5,7:30 AM,,,6:00 PM,8.5,7:30 AM,,,4:00 PM,8,8:00 AM,,,4:00 PM,,,,,"To book, call or text name and preferred time to 0458 604 096.",,http://www.rosecentre.com.au/north-shore-respiratory-clinic-roseville/,26/08/2022 12:15,14500,Ku-ring-gai (A),2,3
CID00388,Rouse Hill Histopath Pathology Drive-through and Walk-in Clinic,150.9094153,-33.68238223,,32 Worcester Road,Rouse Hill,NSW,2155,2,2,2,1,,,1,1,70,10,8:00 AM,,,6:00 PM,10,8:00 AM,,,6:00 PM,10,8:00 AM,,,6:00 PM,10,8:00 AM,,,6:00 PM,10,8:00 AM,,,6:00 PM,10,8:00 AM,,,6:00 PM,10,8:00 AM,,,6:00 PM,,,,,,,https://www.histopath.com.au/,11/10/2022 12:30,17420,The Hills Shire (A),2,4
CID00389,Royal North Shore Hospital Clinic,151.1930839,-33.82023599,"Royal North Shore COVID-19 Screening Clinic, Building 22",Herbert Street,St Leonards,NSW,2065,1,2,2,1,,,1,1,70,10,8:00 AM,,,6:00 PM,10,8:00 AM,,,6:00 PM,10,8:00 AM,,,6:00 PM,10,8:00 AM,,,6:00 PM,10,8:00 AM,,,6:00 PM,10,8:00 AM,,,6:00 PM,10,8:00 AM,,,6:00 PM,,,,,,,,29/09/2022 9:00,18250,Willoughby (C),1,1
CID00390,Royal Prince Alfred Hospital Clinic,151.182484,-33.889574,Building 25,50 Missenden Road,Camperdown,NSW,2050,1,2,2,1,,,1,1,70,10,8:00 AM,,,6:00 PM,10,8:00 AM,,,6:00 PM,10,8:00 AM,,,6:00 PM,10,8:00 AM,,,6:00 PM,10,8:00 AM,,,6:00 PM,10,8:00 AM,,,6:00 PM,10,8:00 AM,,,6:00 PM,,,,,"Please note, the last patient will be triaged at 3pm to allow staff time to finish assessing patients.",,,19/04/2022 13:15,17200,Sydney (C),2,7
CID00393,Ryde Respiratory Clinic,151.1399215,-33.79514727,,39 Delhi Road,North Ryde,NSW,2113,1,1,2,2,https://www.hotdoc.com.au/medical-centres/macquarie-park-NSW-2113/ryde-respiratory-clinic/doctors?purpose=respiratory,,1,1,56,8,8:00 AM,,,4:00 PM,8,8:00 AM,,,4:00 PM,8,8:00 AM,,,4:00 PM,8,8:00 AM,,,4:00 PM,8,8:00 AM,,,4:00 PM,8,8:00 AM,,,4:00 PM,8,8:00 AM,,,4:00 PM,,,,,,,,12/09/2022 19:15,16700,Ryde (C),2,6
CID00394,Rylstone Multi-Purpose Health Service Clinic,149.9755862,-32.80421858,,Fitzgerald Street,Rylstone,NSW,2849,1,2,2,2,,02 6357 6100,1,1,5,1,10:00 AM,,,11:00 AM,1,10:00 AM,,,11:00 AM,1,10:00 AM,,,11:00 AM,1,10:00 AM,,,11:00 AM,1,10:00 AM,,,11:00 AM,0,,,,,0,,,,,,,,,Booking required call to make an appointment.,,,25/05/2022 12:01,15270,Mid-Western Regional (A),2,3
CID00395,Sanctuary Point Respiratory Clinic,150.6240927,-35.10581036,Sanctuary Point Respiratory Clinic,195 Kerry Street,Sanctuary Point,NSW,2540,1,1,2,2,https://www.hotdoc.com.au/medical-centres/sanctuary-point-NSW-2540/sanctuary-point-respiratory-clinic/doctors?purpose=respiratory,,1,1,35,7,9:00 AM,,,4:00 PM,7,9:00 AM,,,4:00 PM,7,9:00 AM,,,4:00 PM,7,9:00 AM,,,4:00 PM,7,9:00 AM,,,4:00 PM,0,,,,,0,,,,,,,,,,Closed on public holidays.,,11/04/2022 18:30,16950,Shoalhaven (C),2,7
CID00397,Scone Hospital Clinic,150.87611,-32.052006,Physiotherapy Building,Stafford Street,Scone,NSW,2337,1,2,1,2,,(02) 6540 2100,1,1,2,0,,,,,1,10:00 AM,,,11:00 AM,0,,,,,1,10:00 AM,,,11:00 AM,0,,,,,0,,,,,0,,,,,,,,,,,,31/05/2022 9:45,17620,Upper Hunter Shire (A),1,1
CID00398,Seven Hills Laverty Pathology Walk-In Clinic,150.935592,-33.775734,,156 Best Road,Seven Hills,NSW,2147,1,2,2,1,,,1,1,20,4,8:00 AM,,,12:00 PM,4,8:00 AM,,,12:00 PM,4,8:00 AM,,,12:00 PM,4,8:00 AM,,,12:00 PM,4,8:00 AM,,,12:00 PM,0,,,,,0,,,,,,(02) 9005 7005,,,,,https://www.laverty.com.au/,10/06/2022 10:17,10750,Blacktown (C),2,9
CID00399,Shellharbour Southern.IML Pathology Drive-through Clinic,150.8581369,-34.57843735,Myimbarr Sporting Fields Car Park,Wattle Road,Shellharbour,NSW,2529,2,2,1,1,,,1,1,35,7,8:00 AM,,,3:00 PM,7,8:00 AM,,,3:00 PM,7,8:00 AM,,,3:00 PM,7,8:00 AM,,,3:00 PM,7,8:00 AM,,,3:00 PM,0,,,,,0,,,,,,1300 652 200,,,,,https://www.southernpath.com.au/,23/05/2022 16:15,16900,Shellharbour (C),2,3
CID00403,Singleton Heights 4Cyte Pathology Drive-through Clinic,151.1605792,-32.54859212,Alroy Oval Car Park,Blaxland Avenue,Singleton Heights,NSW,2330,2,2,1,1,,,1,1,38.75,7.75,7:00 AM,,,2:45 PM,7.75,7:00 AM,,,2:45 PM,7.75,7:00 AM,,,2:45 PM,7.75,7:00 AM,,,2:45 PM,7.75,7:00 AM,,,2:45 PM,0,,,,,0,,,,,,13 42 98,,,,,https://www.4cyte.com.au/,27/09/2022 15:00,17000,Singleton (A),1,1
CID00408,South Hurstville Douglass Hanly Moir Pathology Drive-through Clinic,151.1000368,-33.97904153,Poulton Park,9 Morshead Drive,Connells Point,NSW,2221,2,2,1,1,,,1,1,25,5,8:00 AM,,,1:00 PM,5,8:00 AM,,,1:00 PM,5,8:00 AM,,,1:00 PM,5,8:00 AM,,,1:00 PM,5,8:00 AM,,,1:00 PM,0,,,,,0,,,,,,(02) 9855 6116,,,,,https://www.dhm.com.au/,28/09/2022 15:00,12930,Georges River (A),2,5
CID00410,South Tweed Heads 4Cyte Pathology Drive-through and Walk-in Clinic,153.5419477,-28.2053942,,157-161 Minjungbal Drive (Corner of Minjungbal Drive and Rivendell Drive),South Tweed Heads,NSW,2485,2,2,2,1,,,1,1,66,10,7:00 AM,,,5:00 PM,10,7:00 AM,,,5:00 PM,10,7:00 AM,,,5:00 PM,10,7:00 AM,,,5:00 PM,10,7:00 AM,,,5:00 PM,8,8:00 AM,,,4:00 PM,8,8:00 AM,,,4:00 PM,,13 42 98,,,,,https://www.4cyte.com.au/,22/06/2022 14:15,17550,Tweed (A),2,4
CID00413,St George Hospital Clinic,151.1349406,-33.9683739,Chapel Street Clinic ,9 Chapel Street,Kogarah,NSW,2217,1,2,2,1,,,1,1,42.5,8.5,8:30 AM,,,5:00 PM,8.5,8:30 AM,,,5:00 PM,8.5,8:30 AM,,,5:00 PM,8.5,8:30 AM,,,5:00 PM,8.5,8:30 AM,,,5:00 PM,0,,,,,0,,,,,,,,,,,,30/09/2022 8:30,10500,Bayside (A),2,5
CID00416,St Mary's Clinical Labs Pathology Walk-in Clinic,150.7737742,-33.76385008,,Corner of Belar Street and West Lane,St Marys,NSW,2760,1,1,2,1,,,1,1,25,5,8:00 AM,,,1:00 PM,5,8:00 AM,,,1:00 PM,5,8:00 AM,,,1:00 PM,5,8:00 AM,,,1:00 PM,5,8:00 AM,,,1:00 PM,0,,,,,0,,,,,,(02) 8745 6500,,,,,https://www.clinicallabs.com.au/,28/10/2022 13:15,16350,Penrith (C),2,8
CID00418,Stanhope Gardens Clinical Labs Pathology Drive-through Clinic,150.9230083,-33.71791989,Blacktown Leisure Centre,Stanhope Parkway,Stanhope Gardens,NSW,2768,2,2,1,1,,,1,1,56,8,9:00 AM,,,5:00 PM,8,9:00 AM,,,5:00 PM,8,9:00 AM,,,5:00 PM,8,9:00 AM,,,5:00 PM,8,9:00 AM,,,5:00 PM,8,9:00 AM,,,5:00 PM,8,9:00 AM,,,5:00 PM,,,,,,,https://www.clinicallabs.com.au/,17/10/2022 0:15,10750,Blacktown (C),2,9
CID00419,Stanmore 4Cyte Pathology Drive-through and Walk-in Clinic,151.168556,-33.898705,Cyprus Community of NSW,58/76 Stanmore Road,Stanmore,NSW,2048,2,2,2,1,,,1,1,63,9,7:00 AM,,,4:00 PM,9,7:00 AM,,,4:00 PM,9,7:00 AM,,,4:00 PM,9,7:00 AM,,,4:00 PM,9,7:00 AM,,,4:00 PM,9,7:00 AM,,,4:00 PM,9,7:00 AM,,,4:00 PM,,13 42 98,,,,,https://www.4cyte.com.au/,30/06/2022 15:47,14170,Inner West (A),2,4
CID00425,Sutherland Hospital Clinic,151.1161909,-34.03728484,Demountable building on the Hinkler Ave side of hospital campus.,Corner of Kingsway and Kareena Road,Caringbah,NSW,2229,1,2,2,1,,,1,1,37.5,7.5,8:30 AM,,,4:00 PM,7.5,8:30 AM,,,4:00 PM,7.5,8:30 AM,,,4:00 PM,7.5,8:30 AM,,,4:00 PM,7.5,8:30 AM,,,4:00 PM,0,,,,,0,,,,,,,,,,,,30/09/2022 8:30,17150,Sutherland Shire (A),2,7
CID00427,4Cyte Pathology Sydney,151.2120786,-33.86712209,,4/195 Macquarie Street,Sydney,NSW,2000,1,2,2,1,,,1,1,40,8,8:00 AM,,,4:00 PM,8,8:00 AM,,,4:00 PM,8,8:00 AM,,,4:00 PM,8,8:00 AM,,,4:00 PM,8,8:00 AM,,,4:00 PM,0,,,,,0,,,,,,13 42 98,,,,,https://www.4cyte.com.au/,29/09/2022 11:01,17200,Sydney (C),2,7
CID00428,Sydney 4Cyte Pathology Walk-in Clinic,151.2036726,-33.88256317,,803-813 George Street,Sydney,NSW,2000,1,2,2,1,,,1,1,91,13,7:00 AM,,,8:00 PM,13,7:00 AM,,,8:00 PM,13,7:00 AM,,,8:00 PM,13,7:00 AM,,,8:00 PM,13,7:00 AM,,,8:00 PM,13,7:00 AM,,,8:00 PM,13,7:00 AM,,,8:00 PM,,13 42 98,,,,,https://www.4cyte.com.au/,29/09/2022 10:16,17200,Sydney (C),2,7
CID00430,Sydney Olympic Park Clinical Labs Pathology Drive-through Clinic,151.0620415,-33.84954588,,Corner of Uhrig Road and Edwin Flack Avenue,Sydney Olympic Park,NSW,2127,2,2,1,1,,,1,1,49,7,9:00 AM,,,4:00 PM,7,9:00 AM,,,4:00 PM,7,9:00 AM,,,4:00 PM,7,9:00 AM,,,4:00 PM,7,9:00 AM,,,4:00 PM,7,9:00 AM,,,4:00 PM,7,9:00 AM,,,4:00 PM,,1300 134 111,,,,,https://www.clinicallabs.com.au/about-us/doctor-media-releases/novel-coronavirus-nsw/,19/10/2022 11:00,16260,Parramatta (C),2,5
CID00432,Tamworth Douglass Hanly Moir Pathology Walk-In Clinic,150.926182,-31.087141,Suite 3,199 Peel Street,Tamworth,NSW,2340,1,1,2,1,,,1,1,39.5,7.5,8:30 AM,,,4:00 PM,7.5,8:30 AM,,,4:00 PM,7.5,8:30 AM,,,4:00 PM,7.5,8:30 AM,,,4:00 PM,7.5,8:30 AM,,,4:00 PM,2,8:30 AM,,,10:30 AM,0,,,,,,(02) 9855 6116,,All Ages. ,No Bookings required,,https://www.dhm.com.au/,28/09/2022 15:01,17310,Tamworth Regional (A),2,3
CID00435,Tamworth Respiratory Clinic,150.9228782,-31.1124398,,255a Goonooo Goonoo Road,Tamworth,NSW,2340,1,2,2,2,https://www.hotdoc.com.au/medical-centres/tamworth-NSW-2340/tamworth-respiratory-clinic/doctors?purpose=respiratory,(02) 6768 3288,1,1,55.5,8.5,8:30 AM,,,5:00 PM,8.5,8:30 AM,,,5:00 PM,8.5,8:30 AM,,,5:00 PM,8.5,8:30 AM,,,5:00 PM,8.5,8:30 AM,,,5:00 PM,6.5,9:00 AM,,,3:30 PM,6.5,9:00 AM,,,3:30 PM,,,,,,Closed on public holidays.,,11/04/2022 18:30,17310,Tamworth Regional (A),2,3
CID00436,Taree Douglass Hanly Moir Pathology Walk-In Clinic,152.458148,-31.911263,Suite 1,65 Pulteney Street,Taree,NSW,2430,1,1,2,2,,"1800 026 622,(02) 9111 3405",1,1,40,8,8:00 AM,,,4:00 PM,8,8:00 AM,,,4:00 PM,8,8:00 AM,,,4:00 PM,8,8:00 AM,,,4:00 PM,8,8:00 AM,,,4:00 PM,0,,,,,0,,,,,,(02) 9855 6116,,,,,https://www.dhm.com.au/,28/09/2022 15:01,15240,Mid-Coast (A),2,4
CID00437,Taree Respiratory Clinic,152.4596649,-31.91302232,Rear of Health Hub Taree,15 Butterworth Lane,Taree,NSW,2430,1,1,2,2,https://www.hotdoc.com.au/medical-centres/taree-NSW-2430/taree-respiratory-clinic/doctors?purpose=respiratory,,1,1,28.5,4.5,8:30 AM,,,1:00 PM,4.5,8:30 AM,,,1:00 PM,7.5,8:30 AM,,,4:00 PM,4.5,8:30 AM,,,1:00 PM,7.5,8:30 AM,,,4:00 PM,0,,,,,0,,,,,,,,,,,,27/09/2022 15:00,15240,Mid-Coast (A),2,4
CID00438,Taree Histopath Pathology Drive-through Clinic ,152.4506059,-31.88797078,Bushland Place Hostel,1 Bushland Drive,Taree,NSW,2430,2,1,1,1,,,1,1,42,6,8:00 AM,,,2:00 PM,6,8:00 AM,,,2:00 PM,6,8:00 AM,,,2:00 PM,6,8:00 AM,,,2:00 PM,6,8:00 AM,,,2:00 PM,6,8:00 AM,,,2:00 PM,6,8:00 AM,,,2:00 PM,,(02) 9878 8111,,,,,https://www.histopath.com.au/,29/09/2022 11:00,15240,Mid-Coast (A),2,4
CID00440,Telerah Histopath Pathology Drive-through Clinic,151.5278543,-32.72742911,,84 Green Street,Telerah,NSW,2320,2,2,1,1,,,1,1,56,8,8:00 AM,,,4:00 PM,8,8:00 AM,,,4:00 PM,8,8:00 AM,,,4:00 PM,8,8:00 AM,,,4:00 PM,8,8:00 AM,,,4:00 PM,8,8:00 AM,,,4:00 PM,8,8:00 AM,,,4:00 PM,,(02) 9878 8111,,,,,https://www.histopath.com.au/,29/09/2022 11:00,15050,Maitland (C),2,4
CID00441,Temora Hospital Clinic,147.5433521,-34.44272898,,169 Temora Young Road,Temora,NSW,2666,1,2,2,2,,(02)  6980 0200,1,1,1,0,,,,,0,,,,,0,,,,,1,9:30 AM,,,10:30 AM,0,,,,,0,,,,,0,,,,,,,,,Please contact Temora Hospital to make a booking for your COVID test on (02)  6980 0200,,,17/09/2022 12:46,17350,Temora (A),1,1
CID00447,Towradgi Histopath Drive-through and Walk-in Clinic,150.91053,-34.38391311,,Ray Robinson Oval Car Park,Towradgi,NSW,2518,2,2,2,1,,,1,1,42,7,8:00 AM,,,3:00 PM,7,8:00 AM,,,3:00 PM,7,8:00 AM,,,3:00 PM,7,8:00 AM,,,3:00 PM,7,8:00 AM,,,3:00 PM,0,,,,,7,8:00 AM,,,3:00 PM,,(02) 9878 8111,,,,,https://www.histopath.com.au/,29/09/2022 11:00,18450,Wollongong (C),2,9
CID00448,Trangie Multi-Purpose Health Service Drive-through Clinic,147.9769952,-32.03046678,,28 Harris Street,Trangie,NSW,2821,2,2,2,1,,,1,1,5,1,10:00 AM,,,11:00 AM,1,10:00 AM,,,11:00 AM,1,10:00 AM,,,11:00 AM,1,10:00 AM,,,11:00 AM,1,10:00 AM,,,11:00 AM,0,,,,,0,,,,,,,,,,,,3/06/2022 16:00,15850,Narromine (A),2,2
CID00453,Tumut Respiratory Clinic,148.2098946,-35.2954524,Old Railway Precinct,Snowy Mountains Highway,Tumut,NSW,2720,1,1,1,2,https://www.hotdoc.com.au/medical-centres/tumut-NSW-2720/tumut-respiratory-clinic/doctors?purpose=respiratory,,1,1,2,0,,,,,0,,,,,0,,,,,2,8:30 AM,,,10:30 AM,0,,,,,0,,,,,0,,,,,,,,,,,https://www.health.gov.au/initiatives-and-programs/coronavirus-covid-19-gp-respiratory-clinics,11/04/2022 18:15,17080,Snowy Valleys (A),1,1
CID00454,Tweed Heads QML Pathology Drive-through Clinic,153.5418525,-28.1755989,Tweed Heads Bowls Club,Corner of Wharf and Florence Street,Tweed Heads,NSW,2485,2,2,1,1,,,1,1,18,3,7:30 AM,,,10:30 AM,3,7:30 AM,,,10:30 AM,3,7:30 AM,,,10:30 AM,3,7:30 AM,,,10:30 AM,3,7:30 AM,,,10:30 AM,3,7:30 AM,,,10:30 AM,0,,,,,,(07) 3121 4555,,,,,https://www.qml.com.au/,13/10/2022 8:30,17550,Tweed (A),2,4
CID00456,Ulladulla Respiratory Clinic,150.4743207,-35.359154,,114 Princess Highway,Ulladulla,NSW,2539,1,1,2,2,https://www.hotdoc.com.au/medical-centres/ulladulla-NSW-2539/ulladulla-respiratory-clinic/doctors?purpose=respiratory,,1,1,37.5,7.5,8:30 AM,,,4:00 PM,7.5,8:30 AM,,,4:00 PM,7.5,8:30 AM,,,4:00 PM,7.5,8:30 AM,,,4:00 PM,7.5,8:30 AM,,,4:00 PM,0,,,,,0,,,,,,,,,,Closed on public holidays.,,11/04/2022 18:01,16950,Shoalhaven (C),2,7
CID00461,Wagga Wagga Douglass Hanly Moir Pathology Walk-In Clinic,147.352275,-35.118787,"Suite 3, Calvary Diagnostic and Consulting Centre, Calvary Health Care Riverina",36 Hardy Avenue,Wagga Wagga,NSW,2650,1,1,2,2,,(02) 9111 3405,1,1,51,9.5,8:00 AM,,,5:30 PM,9.5,8:00 AM,,,5:30 PM,9.5,8:00 AM,,,5:30 PM,9.5,8:00 AM,,,5:30 PM,9.5,8:00 AM,,,5:30 PM,3.5,8:30 AM,,,12:00 PM,0,,,,,,(02) 9855 6116,,,,,https://www.dhm.com.au/,28/09/2022 15:01,17750,Wagga Wagga (C),2,4
CID00464,Wagga Wagga Respiratory Clinic,147.332643,-35.136424,,8 Tanda Place,Glenfield Park,NSW,2650,1,1,1,2,https://www.hotdoc.com.au/medical-centres/glenfield-park-NSW-2650/wagga-wagga-respiratory-clinic/doctors?purpose=respiratory,,1,1,40,8,9:00 AM,,,5:00 PM,8,9:00 AM,,,5:00 PM,8,9:00 AM,,,5:00 PM,8,9:00 AM,,,5:00 PM,8,9:00 AM,,,5:00 PM,0,,,,,0,,,,,,,,,,,https://www.health.gov.au/initiatives-and-programs/coronavirus-covid-19-gp-respiratory-clinics,26/11/2021 16:36,17750,Wagga Wagga (C),2,4
CID00465,Wagga Wagga Walk-In Clinic,147.3602808,-35.11337856,,84-86 Murray Street,Wagga Wagga,NSW,2650,1,2,2,1,,,2,1,16,4,9:00 AM,,,1:00 PM,0,,,,,0,,,,,0,,,,,4,9:00 AM,,,1:00 PM,4,9:00 AM,,,1:00 PM,4,9:00 AM,,,1:00 PM,,,,Children under the age 6 Months will not be tested at this clinic.,Walk ins only ,,,26/09/2022 10:00,17750,Wagga Wagga (C),2,4
CID00468,Wallsend 4Cyte Pathology Drive-through Clinic,151.669261,-32.90248,,173 Nelson Street,Wallsend,NSW,2287,2,2,1,2,https://www.medtechservices.net.au/covid19-wallsend,,1,1,42.5,8,9:00 AM,,,5:00 PM,8,9:00 AM,,,5:00 PM,8,9:00 AM,,,5:00 PM,8,9:00 AM,,,5:00 PM,8,9:00 AM,,,5:00 PM,2.5,9:00 AM,,,11:30 AM,0,,,,,,13 42 98,,,,,https://www.4cyte.com.au/,17/09/2022 13:00,15900,Newcastle (C),2,3
CID00470,Warilla Southern.IML Pathology Drive-through Clinic,150.860606,-34.551443,,109 Shellharbour Road,Warilla,NSW,2528,2,2,1,1,,,1,1,56.5,8.5,8:00 AM,,,4:30 PM,8.5,8:00 AM,,,4:30 PM,8.5,8:00 AM,,,4:30 PM,8.5,8:00 AM,,,4:30 PM,8.5,8:00 AM,,,4:30 PM,7,8:00 AM,,,3:00 PM,7,8:00 AM,,,3:00 PM,,1300 652 200,,,,,https://www.southernpath.com.au/,9/06/2022 17:16,16900,Shellharbour (C),2,3
CID00471,Warners Bay 4Cyte Pathology Drive-through Clinic,151.658862,-32.965261,Central Church,290 Hillsborough Road,Warners Bay,NSW,2282,2,2,1,1,,,1,1,48,8,8:00 AM,,,4:00 PM,8,8:00 AM,,,4:00 PM,8,8:00 AM,,,4:00 PM,8,8:00 AM,,,4:00 PM,8,8:00 AM,,,4:00 PM,8,8:00 AM,,,4:00 PM,0,,,,,,13 42 98,,,,,https://www.4cyte.com.au/,17/09/2022 13:00,14650,Lake Macquarie (C),2,2
CID00473,Warren Multi-Purpose Health Service Drive-through Clinic,147.837508,-31.69398128,,Dr Kater Drive,Warren,NSW,2824,2,2,2,2,,02 6847 5400,1,1,4,1,2:00 PM,,,3:00 PM,1,2:00 PM,,,3:00 PM,1,2:00 PM,,,3:00 PM,1,2:00 PM,,,3:00 PM,0,,,,,0,,,,,0,,,,,,,,,,,,3/06/2022 16:01,17950,Warren (A),1,1
CID00474,Warringah Aquatic Centre Histopath Pathology Drive-through Clinic,151.236439,-33.755252,Warringah Aquatic Centre,1 Aquatic Drive,Frenchs Forest,NSW,2086,2,2,1,1,,,1,1,70,10,8:00 AM,,,6:00 PM,10,8:00 AM,,,6:00 PM,10,8:00 AM,,,6:00 PM,10,8:00 AM,,,6:00 PM,10,8:00 AM,,,6:00 PM,10,8:00 AM,,,6:00 PM,10,8:00 AM,,,6:00 PM,,(02) 9878 8111,,,,,https://www.histopath.com.au/,29/09/2022 11:01,15990,Northern Beaches (A),2,7
CID00475,Wauchope Respiratory Clinic,152.7136741,-31.4692323,,2/243 High Street,Wauchope,NSW,2446,1,2,1,2,https://www.hotdoc.com.au/medical-centres/wauchope-NSW-2446/wauchope-respiratory-clinic/doctors?purpose=respiratory,,1,1,25,5,9:00 AM,,,2:00 PM,5,9:00 AM,,,2:00 PM,5,9:00 AM,,,2:00 PM,5,9:00 AM,,,2:00 PM,5,9:00 AM,,,2:00 PM,0,,,,,0,,,,,,,,,,,,19/04/2022 16:01,16380,Port Macquarie-Hastings (A),1,1
CID00480,Werrington Histopath Pathology Drive-through Clinic,150.7462493,-33.76158844,Western Sydney University Werrington North,Great Western Highway,Werrington,NSW,2747,2,2,1,1,,,1,1,70,10,8:00 AM,,,6:00 PM,10,8:00 AM,,,6:00 PM,10,8:00 AM,,,6:00 PM,10,8:00 AM,,,6:00 PM,10,8:00 AM,,,6:00 PM,10,8:00 AM,,,6:00 PM,10,8:00 AM,,,6:00 PM,,(02) 9878 8111,,,,,https://www.histopath.com.au/,29/09/2022 11:01,16350,Penrith (C),2,8
CID00482,West Ryde Clinical Labs Pathology Walk-In Clinic,151.0878954,-33.8039461,,17 Anthony Road,West Ryde,NSW,2114,1,2,2,1,,,1,1,49,7,8:00 AM,,,3:00 PM,7,8:00 AM,,,3:00 PM,7,8:00 AM,,,3:00 PM,7,8:00 AM,,,3:00 PM,7,8:00 AM,,,3:00 PM,7,8:00 AM,,,3:00 PM,7,8:00 AM,,,3:00 PM,,(02) 8745 6500,,,,,https://www.clinicallabs.com.au/,15/09/2022 16:15,16700,Ryde (C),2,6
CID00486,Wetherill Park 4Cyte Drive-through and Walk-in Clinic,150.9092671,-33.85262774,,22-30 Mansfield Street,Wetherill Park,NSW,2164,2,2,2,1,,,1,1,60,10,8:00 AM,,,6:00 PM,10,8:00 AM,,,6:00 PM,10,8:00 AM,,,6:00 PM,10,8:00 AM,,,6:00 PM,10,8:00 AM,,,6:00 PM,0,,,,,10,8:00 AM,,,6:00 PM,,13 42 98,,,,,https://www.4cyte.com.au/,29/09/2022 11:02,12850,Fairfield (C),2,7
CID00489,Wickham Histopath Pathology Drive-through Clinic,151.7628989,-32.92514008,,42 Honeysuckle Drive,Wickham,NSW,2300,2,2,1,1,,,1,1,70,10,8:00 AM,,,6:00 PM,10,8:00 AM,,,6:00 PM,10,8:00 AM,,,6:00 PM,10,8:00 AM,,,6:00 PM,10,8:00 AM,,,6:00 PM,10,8:00 AM,,,6:00 PM,10,8:00 AM,,,6:00 PM,,(02) 9878 8111,,,,,https://www.histopath.com.au/,29/09/2022 11:01,15900,Newcastle (C),2,3
CID00493,Windsor Respiratory Clinic,150.8207561,-33.60482088,,2 Kable Street,Windsor,NSW,2756,1,1,2,2,,,1,1,7,3.5,1:30 PM,,,5:00 PM,0,,,,,3.5,1:30 PM,,,5:00 PM,0,,,,,0,,,,,0,,,,,0,,,,,,,,,,Closed on public holidays.,https://www.hotdoc.com.au/medical-centres/windSur-NSW-2756/windSur-respiratory-clinic/doctors?purpose=respiratory,11/04/2022 18:01,13800,Hawkesbury (C),2,3
CID00499,Wollongong Southern.IML Pathology Drive-through Clinic,150.8882892,-34.42487172,,45 Denison Street,Wollongong,NSW,2500,2,2,1,1,,,1,1,63,9,8:00 AM,,,5:00 PM,9,8:00 AM,,,5:00 PM,9,8:00 AM,,,5:00 PM,9,8:00 AM,,,5:00 PM,9,8:00 AM,,,5:00 PM,9,8:00 AM,,,5:00 PM,9,8:00 AM,,,5:00 PM,,1300 652 200,,,,,https://www.southernpath.com.au/,19/04/2022 15:45,18450,Wollongong (C),2,9
CID00506,Wyong Histopath Pathology Drive-through Clinic,151.4274897,-33.2834561,,6 Rose Street,Wyong,NSW,2259,2,2,1,1,,,1,1,56,8,8:00 AM,,,4:00 PM,8,8:00 AM,,,4:00 PM,8,8:00 AM,,,4:00 PM,8,8:00 AM,,,4:00 PM,8,8:00 AM,,,4:00 PM,8,8:00 AM,,,4:00 PM,8,8:00 AM,,,4:00 PM,,(02) 9878 8111,,,,,https://www.histopath.com.au/,29/09/2022 11:02,11650,Central Coast (C) (NSW),2,8
CID00509,Yamba Respiratory Clinic,153.3628534,-29.434701,,12 Clarence Street,Yamba,NSW,2464,1,2,1,2,https://www.hotdoc.com.au/medical-centres/yamba-NSW-2464/yamba-respiratory-clinic/doctors?purpose=respiratory,,1,1,7.75,2.5,9:00 AM,,,11:30 AM,0,,,,,2.5,9:00 AM,,,11:30 AM,0,,,,,2.75,9:00 AM,,,11:45 AM,0,,,,,0,,,,,,,,,,Closed on public holidays.,,11/04/2022 18:01,11730,Clarence Valley (A),2,3
CID00510,Yamba Sullivan Nicolaides Pathology Walk-In Clinic,153.344709,-29.435693,Shop 2,72 Yamba Road,Yamba,NSW,2464,1,1,2,1,,,1,1,35,7,7:00 AM,,,2:00 PM,7,7:00 AM,,,2:00 PM,7,7:00 AM,,,2:00 PM,7,7:00 AM,,,2:00 PM,7,7:00 AM,,,2:00 PM,0,,,,,0,,,,,,(07) 3377 8756,,,,,https://www.snp.com.au/coronavirus-covid-19,10/06/2022 16:00,11730,Clarence Valley (A),2,3
CID00512,Yass Walker Park Drive-through Clinic,148.908831,-34.85196598,Walker Park Sporting Complex,Merriman Drive,Yass,NSW,2582,2,2,1,1,,,1,1,8,0,,,,,4,8:00 AM,,,12:00 PM,0,,,,,4,8:00 AM,,,12:00 PM,0,,,,,0,,,,,0,,,,,,,,,Pre-register via https://cap-register.sonicpathology.com.au/step1,,https://www.capitalpath.com.au/covid-19/,24/05/2022 16:56,18710,Yass Valley (A),1,1
CID00517,Woodberry Histopath Pathology Drive-through and Walk-in Clinic,151.6660117,-32.7931168,Noel Unicomb Community Hall,44 Kookaburra Parade,Woodberry,NSW,2322,2,2,2,1,,,1,1,52.5,7.5,8:00 AM,,,3:30 PM,7.5,8:00 AM,,,3:30 PM,7.5,8:00 AM,,,3:30 PM,7.5,8:00 AM,,,3:30 PM,7.5,8:00 AM,,,3:30 PM,7.5,8:00 AM,,,3:30 PM,7.5,8:00 AM,,,3:30 PM,,,,,,,https://histopath.com.au,29/09/2022 11:02,15050,Maitland (C),2,4
CID00523,Wentworthville 4Cyte Pathology Walk-in Clinic,150.9740737,-33.80886178,Veron Street Car Park,69 Veron Street,Wentworthville,NSW,2145,1,1,2,1,,,1,1,70,10,8:00 AM,,,6:00 PM,10,8:00 AM,,,6:00 PM,10,8:00 AM,,,6:00 PM,10,8:00 AM,,,6:00 PM,10,8:00 AM,,,6:00 PM,10,8:00 AM,,,6:00 PM,10,8:00 AM,,,6:00 PM,,13 42 98,,,,,https://www.4cyte.com.au/,29/09/2022 11:01,12380,Cumberland (A),2,5
CID00524,Wellington Hospital Drive-through and Walk-in Clinic ,148.9522704,-32.54989553,"Community Health Building, Wellington Hospital",Gisborne Street,Wellington,NSW,2820,2,2,2,1,,,1,1,10,2,11:00 AM,,,1:00 PM,2,11:00 AM,,,1:00 PM,2,11:00 AM,,,1:00 PM,2,11:00 AM,,,1:00 PM,2,11:00 AM,,,1:00 PM,0,,,,,0,,,,,,,,,,,,8/07/2022 15:00,12390,Dubbo Regional (A),2,3
CID00527,Armidale Laverty Pathology Walk-in Clinic ,151.6575816,-30.51266096,,216 Rusden Street,Armidale,NSW,2350,1,2,2,1,,,1,1,25,5,8:00 AM,,,1:00 PM,5,8:00 AM,,,1:00 PM,5,8:00 AM,,,1:00 PM,5,8:00 AM,,,1:00 PM,5,8:00 AM,,,1:00 PM,0,,,,,0,,,,,,(02) 9005 7005,,,,,https://www.laverty.com.au/,6/10/2022 16:30,10180,Armidale Regional (A),2,3
CID00542,Jindabyne Drive-through Clinic,148.6231326,-36.41567737,Capital Pathology - GP Superclinic level 1,5 Thredbo Terrace,Jindabyne,NSW,2627,2,2,1,1,,,1,1,2.5,0.5,12:30 PM,,,1:00 PM,0.5,12:30 PM,,,1:00 PM,0.5,12:30 PM,,,1:00 PM,0.5,12:30 PM,,,1:00 PM,0.5,12:30 PM,,,1:00 PM,0,,,,,0,,,,,,,,,,,https://www.capitalpath.com.au/our-locations/JB/Jindabyne/,24/05/2022 16:56,17040,Snowy Monaro Regional (A),2,3
CID00543,South Windsor 4Cyte Pathology Drive-through and Walk-in Clinic,150.807276,-33.61807964,,510-512 George Street,South Windsor,NSW,2756,2,2,2,1,,,1,1,70,10,8:00 AM,,,6:00 PM,10,8:00 AM,,,6:00 PM,10,8:00 AM,,,6:00 PM,10,8:00 AM,,,6:00 PM,10,8:00 AM,,,6:00 PM,10,8:00 AM,,,6:00 PM,10,8:00 AM,,,6:00 PM,,13 42 98,,,,,https://www.4cyte.com.au/,29/09/2022 11:02,13800,Hawkesbury (C),2,3
CID00550,Beverly Hills 4Cyte Pathology Drive-through and Walk-in Clinic,151.0820579,-33.95348363,,143 Stoney Creek Road (Old RTA),Beverly Hills,NSW,2209,2,2,2,1,,,1,1,70,10,8:00 AM,,,6:00 PM,10,8:00 AM,,,6:00 PM,10,8:00 AM,,,6:00 PM,10,8:00 AM,,,6:00 PM,10,8:00 AM,,,6:00 PM,10,8:00 AM,,,6:00 PM,10,8:00 AM,,,6:00 PM,,13 42 98,,,,,https://www.4cyte.com.au,29/09/2022 10:17,12930,Georges River (A),2,5
CID00559,Sutherland Histopath Pathology Drive-through Clinic,151.0552924,-34.04049156,Waratah Park Reserve,28 Rawson Avenue,Sutherland,NSW,2232,2,2,2,1,,,1,1,40,8,7:00 AM,,,3:00 PM,8,7:00 AM,,,3:00 PM,8,7:00 AM,,,3:00 PM,8,7:00 AM,,,3:00 PM,8,7:00 AM,,,3:00 PM,0,,,,,0,,,,,,(02) 9878 8111,,,,,https://www.histopath.com.au/,29/09/2022 11:00,17150,Sutherland Shire (A),2,7
CID00560,Cooma Histopath Pathology Drive-through Clinic,149.129742,-36.2413233,Cooma Hospital,Entry via Victoria street ,Cooma,NSW,2630,2,2,2,1,,,1,1,49,7,8:00 AM,,,3:00 PM,7,8:00 AM,,,3:00 PM,7,8:00 AM,,,3:00 PM,7,8:00 AM,,,3:00 PM,7,8:00 AM,,,3:00 PM,7,8:00 AM,,,3:00 PM,7,8:00 AM,,,3:00 PM,,,,,,,https://www.histopath.com.au/,29/09/2022 10:30,17040,Snowy Monaro Regional (A),2,3
CID00562,Brighton Le Sands Histopath Pathology Drive-through Clinic,151.1539949,-33.95040878,,100 Bestic Street,Brighton Le Sands,NSW,2216,2,2,2,1,,,1,1,70,10,8:00 AM,,,6:00 PM,10,8:00 AM,,,6:00 PM,10,8:00 AM,,,6:00 PM,10,8:00 AM,,,6:00 PM,10,8:00 AM,,,6:00 PM,10,8:00 AM,,,6:00 PM,10,8:00 AM,,,6:00 PM,,(02) 9878 8111,,,,,https://www.histopath.com.au/,11/10/2022 12:30,10500,Bayside (A),2,5
CID00567,St Georges Basin Southern.IML Pathology Drive Through Clinic,150.5788891,-35.0875684,St Georges Basin Sporting Complex,Panorama Road (off Wool Road),St Georges Basin,NSW,2540,2,2,1,1,,,1,1,42,7,8:30 AM,,,3:30 PM,7,8:30 AM,,,3:30 PM,7,8:30 AM,,,3:30 PM,7,8:30 AM,,,3:30 PM,7,8:30 AM,,,3:30 PM,0,,,,,7,8:30 AM,,,3:30 PM,,1300 652 200,,,,,https://www.southernpath.com.au/,23/05/2022 16:15,16950,Shoalhaven (C),2,7
CID00568,Fairfield Respiratory Clinic,150.9545993,-33.87116933,,65 Ware Street,Fairfield,NSW,2165,1,2,2,1,,,1,1,52,9,8:00 AM,,,5:00 PM,9,8:00 AM,,,5:00 PM,9,8:00 AM,,,5:00 PM,9,8:00 AM,,,5:00 PM,9,8:00 AM,,,5:00 PM,7,9:00 AM,,,4:00 PM,0,,,,,,1300 134 111,,,Booking is optional. Please call clinic on (02) 9724 7512 to make a booking.,,,12/10/2022 16:00,12850,Fairfield (C),2,7
CID00573,Caringbah Parraweena Road 4Cyte Pathology Walk-in Clinic,151.1207541,-34.02619002,,97 Parraweena Road,Caringbah,NSW,2229,1,2,2,1,,,1,1,70,10,8:00 AM,,,6:00 PM,10,8:00 AM,,,6:00 PM,10,8:00 AM,,,6:00 PM,10,8:00 AM,,,6:00 PM,10,8:00 AM,,,6:00 PM,10,8:00 AM,,,6:00 PM,10,8:00 AM,,,6:00 PM,,134298,,,"If you need to be tested for international travel purposes, after you have registered on the portal (www.4cyte.com.au), print and bring your request form with you.",,https://www.4cyte.com.au,29/09/2022 10:15,17150,Sutherland Shire (A),2,7
CID00575,Millers Point Histopath Pathology Walk-in Clinic,151.2040529,-33.85896716,Abraham Mott Hall,15A Argyle Place,Millers Point,NSW,2000,1,2,2,1,,,1,1,56,8,8:00 AM,,,4:00 PM,8,8:00 AM,,,4:00 PM,8,8:00 AM,,,4:00 PM,8,8:00 AM,,,4:00 PM,8,8:00 AM,,,4:00 PM,8,8:00 AM,,,4:00 PM,8,8:00 AM,,,4:00 PM,,(02) 9878 8111,,,,,https://www.histopath.com.au/,29/09/2022 10:45,17200,Sydney (C),2,7
CID00585,Tenterfield Hospital Drive-through Clinic,152.0134471,-29.04497253,,1-4 Naas Street,Tenterfield,NSW,2372,2,2,2,2,,(02) 67395200,1,1,3,1,9:30 AM,,,10:30 AM,0,,,,,1,9:30 AM,,,10:30 AM,0,,,,,1,9:30 AM,,,10:30 AM,0,,,,,0,,,,,,,,,,,,31/05/2022 9:30,17400,Tenterfield (A),1,1
CID00588,Tamworth Laverty Pathology Walk-in Clinic,150.8971334,-31.09408509,,35 Dampier Street,Tamworth,NSW,2340,1,2,2,1,,,1,1,45,8,7:30 AM,,,3:30 PM,8,7:30 AM,,,3:30 PM,8,7:30 AM,,,3:30 PM,8,7:30 AM,,,3:30 PM,8,7:30 AM,,,3:30 PM,5,7:30 AM,,,12:30 PM,0,,,,,,(02) 9005 7005,,,,,https://www.laverty.com.au/,27/09/2022 8:45,17310,Tamworth Regional (A),2,3
CID00590,Ulladulla Histopath Pathology Drive-through Clinic,150.4753933,-35.35952968,Ulladulla Shopping Centre Car Park,85 South Street,Ulladulla,NSW,2539,2,2,2,1,,,1,1,49,7,8:00 AM,,,3:00 PM,7,8:00 AM,,,3:00 PM,7,8:00 AM,,,3:00 PM,7,8:00 AM,,,3:00 PM,7,8:00 AM,,,3:00 PM,7,8:00 AM,,,3:00 PM,7,8:00 AM,,,3:00 PM,,(02) 9878 8111,,,,,https://www.histopath.com.au/,29/09/2022 11:00,16950,Shoalhaven (C),2,7
CID00593,Fairfield Showground Histopath Pathology Drive-through Clinic,150.9070182,-33.86830985,Fairfield Showground,443 Smithfield Road,Prairiewood,NSW,2176,2,2,1,1,,,1,1,70,10,8:00 AM,,,6:00 PM,10,8:00 AM,,,6:00 PM,10,8:00 AM,,,6:00 PM,10,8:00 AM,,,6:00 PM,10,8:00 AM,,,6:00 PM,10,8:00 AM,,,6:00 PM,10,8:00 AM,,,6:00 PM,,(02) 9878 8111,,,,,https://www.histopath.com.au/,18/10/2022 11:00,12850,Fairfield (C),2,7
CID00594,North Ryde Julius Avenue 4Cyte Drive-through and Walk-in Clinic,151.1402257,-33.796651,,7 Julius Avenue,North Ryde,NSW,2113,2,2,2,1,,,1,1,91,13,7:00 AM,,,8:00 PM,13,7:00 AM,,,8:00 PM,13,7:00 AM,,,8:00 PM,13,7:00 AM,,,8:00 PM,13,7:00 AM,,,8:00 PM,13,7:00 AM,,,8:00 PM,13,7:00 AM,,,8:00 PM,,134298,,,,,https://www.4cyte.com.au,29/09/2022 10:30,16700,Ryde (C),2,6
CID00596,Penrith Medihealth Pathology Drive-through and Walk-in Clinic,150.7046054,-33.75479596,,243 High Street,Penrith,NSW,2750,2,2,2,1,,,1,1,62,10,8:00 AM,,,6:00 PM,10,8:00 AM,,,6:00 PM,10,8:00 AM,,,6:00 PM,10,8:00 AM,,,6:00 PM,10,8:00 AM,,,6:00 PM,6,9:00 AM,,,3:00 PM,6,9:00 AM,,,3:00 PM,,(02) 8608 2070,,,,,https://www.medihealthpathology.com.au/,25/07/2022 9:30,16350,Penrith (C),2,8
CID00597,Cabramatta 4Cyte Pathology Walk-in Clinic,150.9374364,-33.89439889,,Shop 2/39 Arthur Street,Cabramatta,NSW,2166,1,2,2,1,,,1,1,70,10,8:00 AM,,,6:00 PM,10,8:00 AM,,,6:00 PM,10,8:00 AM,,,6:00 PM,10,8:00 AM,,,6:00 PM,10,8:00 AM,,,6:00 PM,10,8:00 AM,,,6:00 PM,10,8:00 AM,,,6:00 PM,,134298,,,,,https://www.4cyte.com.au,29/09/2022 10:15,12850,Fairfield (C),2,7
CID00598,Fairfield 4Cyte Pathology Walk-in Clinic,150.9552601,-33.8714783,,Shop 2/46 Ware Street,Fairfield,NSW,2165,1,2,2,1,,,1,1,70,10,8:00 AM,,,6:00 PM,10,8:00 AM,,,6:00 PM,10,8:00 AM,,,6:00 PM,10,8:00 AM,,,6:00 PM,10,8:00 AM,,,6:00 PM,10,8:00 AM,,,6:00 PM,10,8:00 AM,,,6:00 PM,,134298,,,,,https://www.4cyte.com.au,29/09/2022 11:15,12850,Fairfield (C),2,7
CID00599,Woollahra 4Cyte Pathology Walk-in Clinic,151.2324675,-33.88867467,,8 Oxford Street,Woollahra,NSW,2025,1,2,2,1,,,1,1,70,10,8:00 AM,,,6:00 PM,10,8:00 AM,,,6:00 PM,10,8:00 AM,,,6:00 PM,10,8:00 AM,,,6:00 PM,10,8:00 AM,,,6:00 PM,10,8:00 AM,,,6:00 PM,10,8:00 AM,,,6:00 PM,,134298,,,,,https://www.4cyte.com.au,29/09/2022 11:02,18500,Woollahra (A),1,1
CID00601,Merrylands Histopath Pathology Drive-through Clinic,150.9771574,-33.83379786,Merrylands Park,Corner of Burnett Street and Merrylands Road,Merrylands,NSW,2160,2,2,2,1,,,1,1,70,10,8:00 AM,,,6:00 PM,10,8:00 AM,,,6:00 PM,10,8:00 AM,,,6:00 PM,10,8:00 AM,,,6:00 PM,10,8:00 AM,,,6:00 PM,10,8:00 AM,,,6:00 PM,10,8:00 AM,,,6:00 PM,,(02) 9878 8111,,,,,https://www.histopath.com.au/,29/09/2022 10:45,12380,Cumberland (A),2,5
CID00602,Wollongong Southern.IML Pathology Walk-in Clinic,150.8882061,-34.42479214,,45 Denison Street,Wollongong,NSW,2500,1,2,2,1,,,1,1,30,6,9:00 AM,,,3:00 PM,6,9:00 AM,,,3:00 PM,6,9:00 AM,,,3:00 PM,6,9:00 AM,,,3:00 PM,6,9:00 AM,,,3:00 PM,0,,,,,0,,,,,,1300 652 200,,,,,https://www.southernpath.com.au/,19/04/2022 16:15,18450,Wollongong (C),2,9
CID00603,Bankstown Austech Drive-through and Walk-in Clinic,151.0338566,-33.93200911,,32 Cottam Avenue,Bankstown,NSW,2200,2,2,2,1,,,1,1,30,6,7:00 AM,,,1:00 PM,6,7:00 AM,,,1:00 PM,6,7:00 AM,,,1:00 PM,6,7:00 AM,,,1:00 PM,6,7:00 AM,,,1:00 PM,0,,,,,0,,,,,,1300 265 000,,,,,https://austechlabs.com.au/,19/09/2022 9:45,11570,Canterbury-Bankstown (A),2,9
CID00605,Pymble Safework Laboratories Walk-in Clinic,151.1454789,-33.74981361,Safework Laboratories,Ground Floor 4-10 Bridge Street,Pymble,NSW,2073,1,2,2,2,https://results.swlabs.com.au/bookings/,1300 905 180,1,1,6,0,,,,,6,8:00 AM,,,2:00 PM,0,,,,,0,,,,,0,,,,,0,,,,,0,,,,,,1300 905 180,,,,,https://safeworklaboratories.com.au/,1/11/2022 11:15,14500,Ku-ring-gai (A),2,3
CID00607,Smithfield Histopath Pathology Walk-in Clinic,150.9388986,-33.86150598,,146 Polding Street,Smithfield,NSW,2164,1,2,2,1,,,1,1,56,8,8:00 AM,,,4:00 PM,8,8:00 AM,,,4:00 PM,8,8:00 AM,,,4:00 PM,8,8:00 AM,,,4:00 PM,8,8:00 AM,,,4:00 PM,8,8:00 AM,,,4:00 PM,8,8:00 AM,,,4:00 PM,,,,,,,https://www.histopath.com.au/,16/09/2022 9:45,12850,Fairfield (C),2,7
CID00610,Mayfield 4Cyte Pathology Drive-through Clinic,151.7355063,-32.89614888,,213 Maitland Road,Mayfield,NSW,2304,2,2,2,1,,,1,1,47,8.5,7:30 AM,,,4:00 PM,8.5,7:30 AM,,,4:00 PM,8.5,7:30 AM,,,4:00 PM,8.5,7:30 AM,,,4:00 PM,8.5,7:30 AM,,,4:00 PM,4.5,7:30 AM,,,12:00 PM,0,,,,,,13 42 98,,,,,https://www.medtechservices.net.au/covid19-mayfield,17/09/2022 12:46,15900,Newcastle (C),2,3
CID00611,Glebe Safework Laboratories Walk-in Clinic ,151.1845189,-33.88280524,,170 St. Johns Road,Glebe,NSW,2037,1,2,2,2,https://results.swlabs.com.au/bookings/,1300905180,1,1,42,5,9:00 AM,,,2:00 PM,5,9:00 AM,,,2:00 PM,8,9:00 AM,,,5:00 PM,8,9:00 AM,,,5:00 PM,8,9:00 AM,,,5:00 PM,4,9:00 AM,,,1:00 PM,4,9:00 AM,,,1:00 PM,,1300905180,,,,,https://safeworklaboratories.com.au/,15/07/2022 15:39,17200,Sydney (C),2,7
CID00613,Springwood Clinical Labs Pathology Drive-through Clinic,150.5781573,-33.68966342,Springwood Country Club,84 Hawkesbury Road,Springwood,NSW,2777,2,2,1,1,,,1,1,35,7,9:00 AM,,,4:00 PM,7,9:00 AM,,,4:00 PM,7,9:00 AM,,,4:00 PM,7,9:00 AM,,,4:00 PM,7,9:00 AM,,,4:00 PM,0,,,,,0,,,,,,,,,,,https://www.clinicallabs.com.au/,31/10/2022 12:45,10900,Blue Mountains (C),2,3
CID00614,Tumbi Umbi Clinical Labs Pathology Drive-through Clinic,151.4604153,-33.39794678,,7 Kyte Place,Tumbi Umbi,NSW,2261,2,2,1,1,,,1,1,20,5,9:00 AM,,,2:00 PM,0,,,,,5,9:00 AM,,,2:00 PM,5,9:00 AM,,,2:00 PM,5,9:00 AM,,,2:00 PM,0,,,,,0,,,,,Clinic closed today,,,,,,https://www.clinicallabs.com.au/,1/11/2022 13:45,11650,Central Coast (C) (NSW),2,8
CID00618,Yagoona 4Cyte Pathology Walk-in Clinic,151.0344572,-33.89887074,,53 Brunker Road,Yagoona,NSW,2199,1,2,2,1,,,1,1,48,8,8:00 AM,,,4:00 PM,8,8:00 AM,,,4:00 PM,8,8:00 AM,,,4:00 PM,8,8:00 AM,,,4:00 PM,8,8:00 AM,,,4:00 PM,4,8:00 AM,,,12:00 PM,4,8:00 AM,,,12:00 PM,,134298,,,,,https://www.4cyte.com.au,29/09/2022 11:02,11570,Canterbury-Bankstown (A),2,9
CID00621,Broken Hill Community Health Centre Drive-through and Walk-in Clinic,141.4645828,-31.96036387,,Corner Sulphide Street and Crystal Street,Broken Hill,NSW,2880,2,2,2,1,,,1,1,56,8,8:00 AM,,,4:00 PM,8,8:00 AM,,,4:00 PM,8,8:00 AM,,,4:00 PM,8,8:00 AM,,,4:00 PM,8,8:00 AM,,,4:00 PM,8,8:00 AM,,,4:00 PM,8,8:00 AM,,,4:00 PM,,,,,,,,16/09/2022 8:30,11250,Broken Hill (C),2,3
CID00622,Wagga Wagga 4Cyte Pathology Walk-in Clinic,147.3702614,-35.11219241,,175 Baylis Street,Wagga Wagga,NSW,2650,1,2,2,1,,,1,1,48,8,8:00 AM,,,4:00 PM,8,8:00 AM,,,4:00 PM,8,8:00 AM,,,4:00 PM,8,8:00 AM,,,4:00 PM,8,8:00 AM,,,4:00 PM,8,8:00 AM,,,4:00 PM,0,,,,,,134298,,,,,https://www.4cyte.com.au,29/09/2022 11:01,17750,Wagga Wagga (C),2,4
CID00623,Redfern 4Cyte Pathology Walk-in Clinic,151.2011313,-33.8921082,,174 Redfern Street,Redfern,NSW,2016,1,2,2,1,,,1,1,70,10,8:00 AM,,,6:00 PM,10,8:00 AM,,,6:00 PM,10,8:00 AM,,,6:00 PM,10,8:00 AM,,,6:00 PM,10,8:00 AM,,,6:00 PM,10,8:00 AM,,,6:00 PM,10,8:00 AM,,,6:00 PM,,13 42 98,,,,,https://www.4cyte.com.au,29/09/2022 10:30,17200,Sydney (C),2,7
CID00625,Nowra Laverty Pathology Walk-in Clinic,150.6000505,-34.87509256,,"Suite 4, Ground Floor, 33 Berry Street",Nowra,NSW,2541,1,2,2,1,,,1,1,17.5,3.5,12:30 PM,,,4:00 PM,3.5,12:30 PM,,,4:00 PM,3.5,12:30 PM,,,4:00 PM,3.5,12:30 PM,,,4:00 PM,3.5,12:30 PM,,,4:00 PM,0,,,,,0,,,,,,,,,,,https://www.laverty.com.au/,27/09/2022 8:45,16950,Shoalhaven (C),2,7
CID00626,Narara Paddy Clifton Oval Douglass Hanly Moir Pathology Drive-through,151.3480265,-33.40724564,,19-23 Showground road,Narara,NSW,2250,2,2,1,1,,,1,1,25,5,8:00 AM,,,1:00 PM,5,8:00 AM,,,1:00 PM,5,8:00 AM,,,1:00 PM,5,8:00 AM,,,1:00 PM,5,8:00 AM,,,1:00 PM,0,,,,,0,,,,,,(02) 9855 6116,,,,,https://www.dhm.com.au/,28/09/2022 15:00,11650,Central Coast (C) (NSW),2,8
CID00628,Harris Park 4Cyte Pathology Walk-in Clinic,151.0105974,-33.82192913,,68 Harris Street,Harris Park,NSW,2150,1,2,2,1,,,1,1,50.5,8.5,8:30 AM,,,5:00 PM,8.5,8:30 AM,,,5:00 PM,8.5,8:30 AM,,,5:00 PM,8.5,8:30 AM,,,5:00 PM,8.5,8:30 AM,,,5:00 PM,4,9:00 AM,,,1:00 PM,4,9:00 AM,,,1:00 PM,,134298,,,,,https://www.4cyte.com.au,29/09/2022 10:16,16260,Parramatta (C),2,5
CID00629,Beresfield Laverty Pathology Walk-in Clinic,151.6578831,-32.80162326,,16 Lawson Avenue,Beresfield,NSW,2322,1,2,2,1,,,1,1,25,5,7:30 AM,,,12:30 PM,5,7:30 AM,,,12:30 PM,5,7:30 AM,,,12:30 PM,5,7:30 AM,,,12:30 PM,5,7:30 AM,,,12:30 PM,0,,,,,0,,,,,,,,,,,,27/09/2022 15:00,15050,Maitland (C),2,4
CID00634,Orange Histopath Drive-through Clinic,149.1091199,-33.27059053,Naylor Pavilion - Orange Showground,Leeds Parade,Orange,NSW,2800,2,2,2,1,,,1,1,63,9,7:00 AM,,,4:00 PM,9,7:00 AM,,,4:00 PM,9,7:00 AM,,,4:00 PM,9,7:00 AM,,,4:00 PM,9,7:00 AM,,,4:00 PM,9,7:00 AM,,,4:00 PM,9,7:00 AM,,,4:00 PM,,(02) 9878 8111,,,,,https://www.histopath.com.au/,28/10/2022 13:15,16150,Orange (C),2,3
CID00637,"Gosford Histopath Pathology Walk-in Clinic, Gosford Hospital",151.3408861,-33.42086716,,75 Holden Street,Gosford,NSW,2250,1,2,2,1,,,1,1,56,8,8:00 AM,,,4:00 PM,8,8:00 AM,,,4:00 PM,8,8:00 AM,,,4:00 PM,8,8:00 AM,,,4:00 PM,8,8:00 AM,,,4:00 PM,8,8:00 AM,,,4:00 PM,8,8:00 AM,,,4:00 PM,,(02) 9878 8111,,,,,https://www.histopath.com.au/,18/10/2022 19:00,11650,Central Coast (C) (NSW),2,8
CID00638,Carlingford Histopath Pathology Drive-through and Walk-in Clinic,151.03801,-33.76402,,71 Murray Farm Road,Carlingford,NSW,2118,2,2,2,1,,,1,1,50,10,8:00 AM,,,6:00 PM,10,8:00 AM,,,6:00 PM,10,8:00 AM,,,6:00 PM,10,8:00 AM,,,6:00 PM,10,8:00 AM,,,6:00 PM,0,,,,,0,,,,,,,,,,,https://www.histopath.com.au/,29/09/2022 10:17,16260,Parramatta (C),2,5
CID00034,Barham Hospital Clinic,144.1340777,-35.62483155,,Punt Road,Barham,NSW,2732,1,2,2,2,,1800 831 099,1,1,2,1,10:00 AM,,,11:00 AM,0,,,,,1,10:00 AM,,,11:00 AM,0,,,,,0,,,,,0,,,,,0,,,,,,,,,,,,26/09/2022 10:00,15520,MURRAY RIVER (C),1,1
CID00639,Camden COVID Walk-in,150.6971331,-34.05446808,,1/15 Hill Street,Camden,NSW,2570,1,2,2,1,,,1,1,70,10,8:00 AM,,,6:00 PM,10,8:00 AM,,,6:00 PM,10,8:00 AM,,,6:00 PM,10,8:00 AM,,,6:00 PM,10,8:00 AM,,,6:00 PM,10,8:00 AM,,,6:00 PM,10,8:00 AM,,,6:00 PM,,134298,,,,,https://www.4cyte.com.au,29/09/2022 11:02,11450,Camden (A),2,2
